GNAF_PID,LONGITUDE,LATITUDE,FULL_ADDRESS,LOCALITY,POSTCODE,STATE,RELIABILITY,IAG_COORDINATE,SOURCE_TYPE,AVERAGE_ANNUAL_DAMAGE,FLOOD_FREQUENCY
GANSW706148115,153.52848602,-28.17911312,20 DUCAT STREET,TWEED HEADS,2485,NSW,2,0,GOVERNMENT FLOOD MAPPING,M,L
GANSW706161571,153.52642713,-28.18323819,68 DUCAT STREET,TWEED HEADS,2485,NSW,2,0,GOVERNMENT FLOOD MAPPING,M,H
GANSW706168230,153.52859618,-28.18542089,84 COMPANION WAY,TWEED HEADS,2485,NSW,2,0,GOVERNMENT FLOOD MAPPING,M,L
GANSW712297204,153.53173116,-28.18500572,"UNIT 3, 15 MARGARET STREET",TWEED HEADS,2485,NSW,2,0,GOVERNMENT FLOOD MAPPING,L,L
GANSW712322487,153.53019121,-28.17538562,"UNIT 1, 28 MURRABA CRESCENT",TWEED HEADS,2485,NSW,2,0,GOVERNMENT FLOOD MAPPING,L,L
GANSW706134980,153.53067391,-28.17818207,14 MUGGA WAY,TWEED HEADS,2485,NSW,2,0,GOVERNMENT FLOOD MAPPING,M,L
GANSW706137817,153.52590165,-28.18525188,101 DUCAT STREET,TWEED HEADS,2485,NSW,2,0,GOVERNMENT FLOOD MAPPING,H,H
GANSW706144757,153.53209793,-28.18039657,24 THE QUARTERDECK,TWEED HEADS,2485,NSW,2,0,GOVERNMENT FLOOD MAPPING,M,L
GANSW706162054,153.52810305,-28.18032231,5 COMPASS WAY,TWEED HEADS,2485,NSW,2,0,GOVERNMENT FLOOD MAPPING,M,L
GANSW712300875,153.53173116,-28.18500572,"UNIT 1, 15 MARGARET STREET",TWEED HEADS,2485,NSW,2,0,GOVERNMENT FLOOD MAPPING,L,L
GANSW706179279,153.53149414,-28.17973804,6 THE ANCHORAGE,TWEED HEADS,2485,NSW,2,0,GOVERNMENT FLOOD MAPPING,M,L
GANSW706158006,153.52750239,-28.18513349,19 MERIDIAN WAY,TWEED HEADS,2485,NSW,2,0,GOVERNMENT FLOOD MAPPING,M,L
GANSW706144486,153.53025648,-28.18508649,"UNIT 2, 103 COMPANION WAY",TWEED HEADS,2485,NSW,2,0,GOVERNMENT FLOOD MAPPING,M,L
GANSW712399956,153.52919348,-28.18490198,107 COMPANION WAY,TWEED HEADS,2485,NSW,4,1,GOVERNMENT FLOOD MAPPING,M,L
GANSW706168228,153.52840063,-28.18509860,80 COMPANION WAY,TWEED HEADS,2485,NSW,2,0,GOVERNMENT FLOOD MAPPING,M,L
GANSW707666746,153.53047131,-28.17815353,12 MUGGA WAY,TWEED HEADS,2485,NSW,2,0,GOVERNMENT FLOOD MAPPING,M,L
GANSW706165432,153.53135068,-28.18514806,"UNIT 7, 19 MARGARET STREET",TWEED HEADS,2485,NSW,2,0,GOVERNMENT FLOOD MAPPING,L,L
GANSW707621557,153.53116407,-28.18520621,21 MARGARET STREET,TWEED HEADS,2485,NSW,2,0,GOVERNMENT FLOOD MAPPING,L,L
GANSW706179272,153.52975403,-28.17954170,22 THE ANCHORAGE,TWEED HEADS,2485,NSW,2,0,GOVERNMENT FLOOD MAPPING,M,L
GANSW706168594,153.52696700,-28.18195517,54 DUCAT STREET,TWEED HEADS,2485,NSW,2,0,GOVERNMENT FLOOD MAPPING,M,M
GANSW706171839,153.52653820,-28.18523093,90 DUCAT STREET,TWEED HEADS,2485,NSW,2,0,GOVERNMENT FLOOD MAPPING,M,L
GANSW706168239,153.52950307,-28.18585161,94 COMPANION WAY,TWEED HEADS,2485,NSW,2,0,GOVERNMENT FLOOD MAPPING,M,L
GANSW706172981,153.52660825,-28.18364707,6 MERIDIAN WAY,TWEED HEADS,2485,NSW,2,0,GOVERNMENT FLOOD MAPPING,M,L
GANSW716635801,153.53172024,-28.18570111,"UNIT 1, 16 MARGARET STREET",TWEED HEADS,2485,NSW,2,0,GOVERNMENT FLOOD MAPPING,M,L
GANSW718264751,153.52785843,-28.18654053,101 KENNEDY DRIVE,TWEED HEADS,2485,NSW,2,1,GOVERNMENT FLOOD MAPPING,M,M
GANSW706147822,153.53022766,-28.17958545,18 THE ANCHORAGE,TWEED HEADS,2485,NSW,2,0,GOVERNMENT FLOOD MAPPING,M,L
GANSW715486683,153.52697085,-28.18307879,56 PARKES DRIVE,TWEED HEADS,2485,NSW,2,0,GOVERNMENT FLOOD MAPPING,M,L
GANSW706141488,153.52763759,-28.18261891,46 PARKES DRIVE,TWEED HEADS,2485,NSW,2,0,GOVERNMENT FLOOD MAPPING,M,L
GANSW706165438,153.53116407,-28.18520621,"UNIT 2, 21 MARGARET STREET",TWEED HEADS,2485,NSW,2,0,GOVERNMENT FLOOD MAPPING,L,L
GANSW706144791,153.52918544,-28.18423612,60 THE QUARTERDECK,TWEED HEADS,2485,NSW,2,0,GOVERNMENT FLOOD MAPPING,M,L
GANSW706148816,153.53139196,-28.18246403,36 THE QUARTERDECK,TWEED HEADS,2485,NSW,2,0,GOVERNMENT FLOOD MAPPING,M,L
GANSW706155057,153.53013049,-28.18442117,81 THE QUARTERDECK,TWEED HEADS,2485,NSW,2,0,GOVERNMENT FLOOD MAPPING,M,L
GANSW706134200,153.52788291,-28.18011089,32 DUCAT STREET,TWEED HEADS,2485,NSW,2,0,GOVERNMENT FLOOD MAPPING,M,L
GANSW717947524,153.52830638,-28.18121609,11A COMPASS WAY,TWEED HEADS,2485,NSW,2,0,GOVERNMENT FLOOD MAPPING,M,L
GANSW706144799,153.53077117,-28.18394971,77 THE QUARTERDECK,TWEED HEADS,2485,NSW,2,0,GOVERNMENT FLOOD MAPPING,M,L
GANSW706161575,153.52630219,-28.18355437,72 DUCAT STREET,TWEED HEADS,2485,NSW,2,0,GOVERNMENT FLOOD MAPPING,M,M
GANSW706145268,153.53005991,-28.17805451,"UNIT 3, 8 MUGGA WAY",TWEED HEADS,2485,NSW,2,0,GOVERNMENT FLOOD MAPPING,M,L
GANSW706165440,153.53116407,-28.18520621,"UNIT 4, 21 MARGARET STREET",TWEED HEADS,2485,NSW,2,0,GOVERNMENT FLOOD MAPPING,L,L
GANSW706134209,153.52924414,-28.17769736,"UNIT 3, 4 DUCAT STREET",TWEED HEADS,2485,NSW,2,0,GOVERNMENT FLOOD MAPPING,M,M
GANSW706144768,153.53126894,-28.18303458,42 THE QUARTERDECK,TWEED HEADS,2485,NSW,2,0,GOVERNMENT FLOOD MAPPING,M,L
GANSW706164724,153.53094480,-28.18620024,69 KENNEDY DRIVE,TWEED HEADS,2485,NSW,2,0,GOVERNMENT FLOOD MAPPING,M,M
GANSW706168225,153.52826991,-28.18456231,74 COMPANION WAY,TWEED HEADS,2485,NSW,2,0,GOVERNMENT FLOOD MAPPING,M,L
GANSW718412963,153.52920640,-28.18647910,91 KENNEDY DRIVE,TWEED HEADS,2485,NSW,2,0,GOVERNMENT FLOOD MAPPING,M,H
GANSW712336531,153.52590165,-28.18525188,"UNIT 2, 101 DUCAT STREET",TWEED HEADS,2485,NSW,2,0,GOVERNMENT FLOOD MAPPING,H,H
GANSW706141599,153.53154212,-28.18507799,"UNIT 2, 17 MARGARET STREET",TWEED HEADS,2485,NSW,2,0,GOVERNMENT FLOOD MAPPING,L,L
GANSW706168241,153.52944090,-28.18537088,"UNIT 2, 95 COMPANION WAY",TWEED HEADS,2485,NSW,2,0,GOVERNMENT FLOOD MAPPING,M,L
GANSW706179281,153.53128051,-28.17970848,8 THE ANCHORAGE,TWEED HEADS,2485,NSW,2,0,GOVERNMENT FLOOD MAPPING,M,L
GANSW715473444,153.53272887,-28.18519491,6 MARGARET STREET,TWEED HEADS,2485,NSW,3,0,GOVERNMENT FLOOD MAPPING,L,L
GANSW706164720,153.53200687,-28.18592885,61 KENNEDY DRIVE,TWEED HEADS,2485,NSW,4,1,GOVERNMENT FLOOD MAPPING,M,L
GANSW706182098,153.52640802,-28.18456168,84 DUCAT STREET,TWEED HEADS,2485,NSW,2,0,GOVERNMENT FLOOD MAPPING,M,M
GANSW706164835,153.52983088,-28.18499242,99 COMPANION WAY,TWEED HEADS,2485,NSW,2,0,GOVERNMENT FLOOD MAPPING,M,L
GANSW706179262,153.53089904,-28.17912578,13 THE ANCHORAGE,TWEED HEADS,2485,NSW,2,0,GOVERNMENT FLOOD MAPPING,M,L
GANSW717777187,153.53172024,-28.18570111,"UNIT 1, 16-18 MARGARET STREET",TWEED HEADS,2485,NSW,2,0,GOVERNMENT FLOOD MAPPING,M,L
GANSW706145543,153.52984466,-28.18212789,16 THE MAINBRACE,TWEED HEADS,2485,NSW,2,0,GOVERNMENT FLOOD MAPPING,M,L
GANSW706185498,153.52954109,-28.18286337,12 NORMAN STREET,TWEED HEADS,2485,NSW,2,0,GOVERNMENT FLOOD MAPPING,M,L
GANSW706185513,153.53009424,-28.18341145,4 NORMAN STREET,TWEED HEADS,2485,NSW,2,0,GOVERNMENT FLOOD MAPPING,M,L
GANSW706158003,153.52739479,-28.18461122,16 MERIDIAN WAY,TWEED HEADS,2485,NSW,2,0,GOVERNMENT FLOOD MAPPING,M,L
GANSW706135260,153.53150284,-28.18099255,2 THE BOWSPRIT,TWEED HEADS,2485,NSW,2,0,GOVERNMENT FLOOD MAPPING,M,M
GANSW706165442,153.53116407,-28.18520621,"UNIT 6, 21 MARGARET STREET",TWEED HEADS,2485,NSW,2,0,GOVERNMENT FLOOD MAPPING,L,L
GANSW706179260,153.53108215,-28.17915248,11 THE ANCHORAGE,TWEED HEADS,2485,NSW,2,0,GOVERNMENT FLOOD MAPPING,M,L
GANSW706162052,153.52789449,-28.18069284,3 COMPASS WAY,TWEED HEADS,2485,NSW,2,0,GOVERNMENT FLOOD MAPPING,M,L
GANSW706185509,153.52886869,-28.18337614,23 NORMAN STREET,TWEED HEADS,2485,NSW,2,0,GOVERNMENT FLOOD MAPPING,M,L
GANSW706145240,153.53128528,-28.17826817,"UNIT 1, 20 MUGGA WAY",TWEED HEADS,2485,NSW,2,0,GOVERNMENT FLOOD MAPPING,M,L
GANSW706185510,153.52866438,-28.18329176,25 NORMAN STREET,TWEED HEADS,2485,NSW,2,0,GOVERNMENT FLOOD MAPPING,M,L
GANSW706144746,153.53223015,-28.17924965,16 THE QUARTERDECK,TWEED HEADS,2485,NSW,2,0,GOVERNMENT FLOOD MAPPING,M,L
GANSW706145224,153.52968993,-28.17795104,"UNIT 3, 4 MUGGA WAY",TWEED HEADS,2485,NSW,2,0,GOVERNMENT FLOOD MAPPING,M,L
GANSW707666749,153.53128528,-28.17826817,20 MUGGA WAY,TWEED HEADS,2485,NSW,2,0,GOVERNMENT FLOOD MAPPING,M,L
GANSW712314798,153.52950361,-28.18479553,"UNIT 2, 89 COMPANION WAY",TWEED HEADS,2485,NSW,2,0,GOVERNMENT FLOOD MAPPING,M,L
GANSW706168237,153.52927989,-28.18582385,92 COMPANION WAY,TWEED HEADS,2485,NSW,2,0,GOVERNMENT FLOOD MAPPING,M,L
GANSW706141627,153.53026909,-28.17811099,"UNIT 4, 10 MUGGA WAY",TWEED HEADS,2485,NSW,2,0,GOVERNMENT FLOOD MAPPING,M,L
GANSW706185515,153.53042323,-28.18475990,7 NORMAN STREET,TWEED HEADS,2485,NSW,2,0,GOVERNMENT FLOOD MAPPING,L,L
GANSW706134984,153.53087851,-28.17820265,"UNIT 3, 16 MUGGA WAY",TWEED HEADS,2485,NSW,2,1,GOVERNMENT FLOOD MAPPING,M,L
GANSW706158004,153.52742895,-28.18478423,17 MERIDIAN WAY,TWEED HEADS,2485,NSW,2,0,GOVERNMENT FLOOD MAPPING,M,L
GANSW706155042,153.53077544,-28.18335883,48 THE QUARTERDECK,TWEED HEADS,2485,NSW,2,0,GOVERNMENT FLOOD MAPPING,M,L
GANSW706141588,153.53233530,-28.18535354,10 MARGARET STREET,TWEED HEADS,2485,NSW,2,0,GOVERNMENT FLOOD MAPPING,L,L
GANSW706162046,153.52741398,-28.18225424,20 COMPASS WAY,TWEED HEADS,2485,NSW,2,0,GOVERNMENT FLOOD MAPPING,M,L
GANSW706185504,153.52883093,-28.18270556,18 NORMAN STREET,TWEED HEADS,2485,NSW,2,0,GOVERNMENT FLOOD MAPPING,M,L
GANSW706135253,153.53051287,-28.18038261,13 THE BOWSPRIT,TWEED HEADS,2485,NSW,2,0,GOVERNMENT FLOOD MAPPING,M,L
GANSW706165447,153.53101546,-28.18585205,22 MARGARET STREET,TWEED HEADS,2485,NSW,2,0,GOVERNMENT FLOOD MAPPING,M,M
GANSW707607357,153.52913755,-28.17793758,6 DUCAT STREET,TWEED HEADS,2485,NSW,2,0,GOVERNMENT FLOOD MAPPING,M,M
GANSW712275399,153.53172024,-28.18570111,18 MARGARET STREET,TWEED HEADS,2485,NSW,2,0,GOVERNMENT FLOOD MAPPING,M,L
GANSW706155480,153.52986288,-28.17801501,"UNIT 3, 6 MUGGA WAY",TWEED HEADS,2485,NSW,2,0,GOVERNMENT FLOOD MAPPING,M,L
GANSW706141491,153.52747671,-28.18317353,52 PARKES DRIVE,TWEED HEADS,2485,NSW,2,0,GOVERNMENT FLOOD MAPPING,M,L
GANSW706154987,153.53154212,-28.18507799,"UNIT 4, 17 MARGARET STREET",TWEED HEADS,2485,NSW,2,0,GOVERNMENT FLOOD MAPPING,L,L
GANSW706161580,153.52913755,-28.17793758,"UNIT 2, 6 DUCAT STREET",TWEED HEADS,2485,NSW,2,0,GOVERNMENT FLOOD MAPPING,M,M
GANSW706155481,153.52986288,-28.17801501,"UNIT 4, 6 MUGGA WAY",TWEED HEADS,2485,NSW,2,0,GOVERNMENT FLOOD MAPPING,M,L
GANSW706162050,153.52752610,-28.18154866,24 COMPASS WAY,TWEED HEADS,2485,NSW,2,0,GOVERNMENT FLOOD MAPPING,M,L
GANSW706151888,153.52983398,-28.18570732,33 MARGARET STREET,TWEED HEADS,2485,NSW,2,0,GOVERNMENT FLOOD MAPPING,H,H
GANSW706137818,153.52593266,-28.18541212,103 DUCAT STREET,TWEED HEADS,2485,NSW,2,0,GOVERNMENT FLOOD MAPPING,H,H
GANSW706165450,153.53059142,-28.18541434,25 MARGARET STREET,TWEED HEADS,2485,NSW,2,0,GOVERNMENT FLOOD MAPPING,M,L
GANSW706145246,153.53124690,-28.17777951,21 MUGGA WAY,TWEED HEADS,2485,NSW,2,0,GOVERNMENT FLOOD MAPPING,L,L
GANSW706144485,153.53025648,-28.18508649,"UNIT 1, 103 COMPANION WAY",TWEED HEADS,2485,NSW,2,0,GOVERNMENT FLOOD MAPPING,M,L
GANSW706148806,153.53168348,-28.18109764,28 THE QUARTERDECK,TWEED HEADS,2485,NSW,2,0,GOVERNMENT FLOOD MAPPING,M,L
GANSW706135249,153.53175098,-28.18056197,1 THE BOWSPRIT,TWEED HEADS,2485,NSW,2,0,GOVERNMENT FLOOD MAPPING,M,L
GANSW706134216,153.52745260,-28.18084392,42 DUCAT STREET,TWEED HEADS,2485,NSW,2,0,GOVERNMENT FLOOD MAPPING,M,M
GANSW706165315,153.53113496,-28.18378058,73 THE QUARTERDECK,TWEED HEADS,2485,NSW,2,0,GOVERNMENT FLOOD MAPPING,L,L
GANSW706141624,153.53026909,-28.17811099,"UNIT 1, 10 MUGGA WAY",TWEED HEADS,2485,NSW,2,0,GOVERNMENT FLOOD MAPPING,M,L
GANSW706145561,153.53219651,-28.17768976,1 THE JIB,TWEED HEADS,2485,NSW,2,0,GOVERNMENT FLOOD MAPPING,L,L
GANSW706141600,153.53154212,-28.18507799,"UNIT 3, 17 MARGARET STREET",TWEED HEADS,2485,NSW,2,0,GOVERNMENT FLOOD MAPPING,L,L
GANSW706141483,153.52697322,-28.18255515,40 PARKES DRIVE,TWEED HEADS,2485,NSW,2,0,GOVERNMENT FLOOD MAPPING,M,L
GANSW716635802,153.53172024,-28.18570111,"UNIT 2, 16 MARGARET STREET",TWEED HEADS,2485,NSW,2,0,GOVERNMENT FLOOD MAPPING,M,L
GANSW706144790,153.53200806,-28.17845076,6 THE QUARTERDECK,TWEED HEADS,2485,NSW,2,0,GOVERNMENT FLOOD MAPPING,M,L
GANSW706179261,153.53088378,-28.17964935,12 THE ANCHORAGE,TWEED HEADS,2485,NSW,2,0,GOVERNMENT FLOOD MAPPING,M,L
GANSW706135325,153.53133317,-28.18228268,2 THE MAINBRACE,TWEED HEADS,2485,NSW,2,0,GOVERNMENT FLOOD MAPPING,M,L
GANSW706185503,153.52952408,-28.18349425,17 NORMAN STREET,TWEED HEADS,2485,NSW,2,0,GOVERNMENT FLOOD MAPPING,M,L
GANSW706158010,153.52765161,-28.18561062,22 MERIDIAN WAY,TWEED HEADS,2485,NSW,2,0,GOVERNMENT FLOOD MAPPING,M,L
GANSW706168238,153.52946766,-28.18502131,93 COMPANION WAY,TWEED HEADS,2485,NSW,2,0,GOVERNMENT FLOOD MAPPING,M,L
GANSW706148815,153.53269502,-28.18056840,35 THE QUARTERDECK,TWEED HEADS,2485,NSW,2,0,GOVERNMENT FLOOD MAPPING,L,L
GANSW706182209,153.53353275,-28.18502056,43 KENNEDY DRIVE,TWEED HEADS,2485,NSW,2,0,GOVERNMENT FLOOD MAPPING,L,L
GANSW706148106,153.52858095,-28.17895417,18 DUCAT STREET,TWEED HEADS,2485,NSW,2,0,GOVERNMENT FLOOD MAPPING,M,L
GANSW707663380,153.53263311,-28.18075915,37 THE QUARTERDECK,TWEED HEADS,2485,NSW,2,0,GOVERNMENT FLOOD MAPPING,L,L
GANSW706145241,153.53128528,-28.17826817,"UNIT 2, 20 MUGGA WAY",TWEED HEADS,2485,NSW,2,0,GOVERNMENT FLOOD MAPPING,M,L
GANSW706141631,153.53047131,-28.17815353,"UNIT 1, 12 MUGGA WAY",TWEED HEADS,2485,NSW,2,0,GOVERNMENT FLOOD MAPPING,M,L
GANSW706164727,153.53060688,-28.18642157,73 KENNEDY DRIVE,TWEED HEADS,2485,NSW,2,0,GOVERNMENT FLOOD MAPPING,H,H
GANSW707642020,153.52896032,-28.17831045,10 DUCAT STREET,TWEED HEADS,2485,NSW,2,0,GOVERNMENT FLOOD MAPPING,M,M
GANSW706164841,153.52812560,-28.18164889,14 COMPASS WAY,TWEED HEADS,2485,NSW,2,0,GOVERNMENT FLOOD MAPPING,M,L
GANSW716998399,153.53172024,-28.18570111,"UNIT 4, 16 MARGARET STREET",TWEED HEADS,2485,NSW,2,0,GOVERNMENT FLOOD MAPPING,M,L
GANSW706178993,153.52799219,-28.18601720,25 MERIDIAN WAY,TWEED HEADS,2485,NSW,2,0,GOVERNMENT FLOOD MAPPING,M,L
GANSW716897425,153.53172024,-28.18570111,"UNIT 2, 18 MARGARET STREET",TWEED HEADS,2485,NSW,2,0,GOVERNMENT FLOOD MAPPING,M,L
GANSW716897426,153.53172024,-28.18570111,"UNIT 3, 18 MARGARET STREET",TWEED HEADS,2485,NSW,2,0,GOVERNMENT FLOOD MAPPING,M,L
GANSW707666742,153.52892457,-28.18563931,88 COMPANION WAY,TWEED HEADS,2485,NSW,2,0,GOVERNMENT FLOOD MAPPING,M,L
GANSW706165433,153.53135068,-28.18514806,"UNIT 8, 19 MARGARET STREET",TWEED HEADS,2485,NSW,2,0,GOVERNMENT FLOOD MAPPING,L,L
GANSW706168227,153.52834554,-28.18492088,78 COMPANION WAY,TWEED HEADS,2485,NSW,2,0,GOVERNMENT FLOOD MAPPING,M,L
GANSW706141482,153.52552094,-28.18257790,39 PARKES DRIVE,TWEED HEADS,2485,NSW,4,1,GOVERNMENT FLOOD MAPPING,M,L
GANSW718691107,153.52980309,-28.17532257,33 MURRABA CRESCENT,TWEED HEADS,2485,NSW,2,0,GOVERNMENT FLOOD MAPPING,L,L
GANSW706155482,153.52986288,-28.17801501,"UNIT 5, 6 MUGGA WAY",TWEED HEADS,2485,NSW,2,0,GOVERNMENT FLOOD MAPPING,M,L
GANSW706168235,153.52909280,-28.18575010,90 COMPANION WAY,TWEED HEADS,2485,NSW,2,0,GOVERNMENT FLOOD MAPPING,M,L
GANSW706178994,153.52814712,-28.18611551,26 MERIDIAN WAY,TWEED HEADS,2485,NSW,2,0,GOVERNMENT FLOOD MAPPING,M,L
GANSW706155049,153.52974486,-28.18401125,54 THE QUARTERDECK,TWEED HEADS,2485,NSW,2,0,GOVERNMENT FLOOD MAPPING,M,L
GANSW706179277,153.53170776,-28.17976856,4 THE ANCHORAGE,TWEED HEADS,2485,NSW,2,0,GOVERNMENT FLOOD MAPPING,M,L
GANSW706178997,153.52875512,-28.18641643,"UNIT 1, 29 MERIDIAN WAY",TWEED HEADS,2485,NSW,2,0,GOVERNMENT FLOOD MAPPING,M,L
GANSW706171844,153.52662847,-28.18568670,96 DUCAT STREET,TWEED HEADS,2485,NSW,2,0,GOVERNMENT FLOOD MAPPING,M,L
GANSW712363179,153.52731657,-28.18421510,"UNIT 1, 14 MERIDIAN WAY",TWEED HEADS,2485,NSW,2,0,GOVERNMENT FLOOD MAPPING,M,L
GANSW712306685,153.53064600,-28.18599747,"UNIT 1, 26 MARGARET STREET",TWEED HEADS,2485,NSW,2,0,GOVERNMENT FLOOD MAPPING,M,M
GANSW706134207,153.52924414,-28.17769736,"UNIT 1, 4 DUCAT STREET",TWEED HEADS,2485,NSW,2,0,GOVERNMENT FLOOD MAPPING,M,M
GANSW712295706,153.53064600,-28.18599747,"UNIT 2, 26 MARGARET STREET",TWEED HEADS,2485,NSW,2,0,GOVERNMENT FLOOD MAPPING,M,M
GANSW706135018,153.53096212,-28.18476473,"UNIT 7, 28 STANLEY STREET",TWEED HEADS,2485,NSW,2,0,GOVERNMENT FLOOD MAPPING,L,L
GANSW706105805,153.53315149,-28.18243999,"UNIT 2, 14 ALVA STREET",TWEED HEADS,2485,NSW,2,0,GOVERNMENT FLOOD MAPPING,L,L
GANSW706145260,153.53178367,-28.18447543,18 STANLEY STREET,TWEED HEADS,2485,NSW,2,0,GOVERNMENT FLOOD MAPPING,L,L
GANSW706141516,153.53327372,-28.18170502,"UNIT 1, 8 LEEWARD TERRACE",TWEED HEADS,2485,NSW,2,0,GOVERNMENT FLOOD MAPPING,L,L
GANSW706155061,153.53276122,-28.17816725,9 THE QUARTERDECK,TWEED HEADS,2485,NSW,2,0,GOVERNMENT FLOOD MAPPING,L,L
GANSW706151896,153.53268108,-28.18465905,"UNIT 5, 5 MARGARET STREET",TWEED HEADS,2485,NSW,2,0,GOVERNMENT FLOOD MAPPING,L,L
GANSW706141507,153.53402116,-28.17797711,44 LEEWARD TERRACE,TWEED HEADS,2485,NSW,2,0,GOVERNMENT FLOOD MAPPING,L,L
GANSW706135239,153.53361428,-28.18116300,14 LEEWARD TERRACE,TWEED HEADS,2485,NSW,2,0,GOVERNMENT FLOOD MAPPING,L,L
GANSW706175724,153.53268108,-28.18465905,5 MARGARET STREET,TWEED HEADS,2485,NSW,2,0,GOVERNMENT FLOOD MAPPING,L,L
GANSW706145523,153.53243551,-28.17694688,10 KENT STREET,TWEED HEADS,2485,NSW,2,0,GOVERNMENT FLOOD MAPPING,L,L
GANSW706135235,153.53357331,-28.18138791,12 LEEWARD TERRACE,TWEED HEADS,2485,NSW,2,0,GOVERNMENT FLOOD MAPPING,L,L
GANSW706144745,153.53299143,-28.17863648,15 THE QUARTERDECK,TWEED HEADS,2485,NSW,2,0,GOVERNMENT FLOOD MAPPING,L,L
GANSW706145265,153.53145919,-28.18457654,22 STANLEY STREET,TWEED HEADS,2485,NSW,2,0,GOVERNMENT FLOOD MAPPING,L,L
GANSW706162191,153.53351926,-28.18445222,4 MCDONALD STREET,TWEED HEADS,2485,NSW,2,0,GOVERNMENT FLOOD MAPPING,L,L
GANSW706144796,153.53145766,-28.18363424,69 THE QUARTERDECK,TWEED HEADS,2485,NSW,2,0,GOVERNMENT FLOOD MAPPING,L,L
GANSW706172985,153.52973150,-28.17599173,11 MILES STREET,TWEED HEADS,2485,NSW,2,0,GOVERNMENT FLOOD MAPPING,L,L
GANSW706145275,153.53045533,-28.17716033,13 MURRABA CRESCENT,TWEED HEADS,2485,NSW,2,0,GOVERNMENT FLOOD MAPPING,L,L
GANSW715473440,153.53287559,-28.18459561,"UNIT 3, 3 MARGARET STREET",TWEED HEADS,2485,NSW,2,0,GOVERNMENT FLOOD MAPPING,L,L
GANSW706145512,153.53399267,-28.17908488,"UNIT 2, 34 LEEWARD TERRACE",TWEED HEADS,2485,NSW,2,0,GOVERNMENT FLOOD MAPPING,L,L
GANSW706165467,153.53393251,-28.18253730,"UNIT 3, 4 SECOND AVENUE",TWEED HEADS,2485,NSW,2,0,GOVERNMENT FLOOD MAPPING,L,L
GANSW706165471,153.53364781,-28.18310722,5 SECOND AVENUE,TWEED HEADS,2485,NSW,2,0,GOVERNMENT FLOOD MAPPING,L,L
GANSW706151893,153.53268108,-28.18465905,"UNIT 2, 5 MARGARET STREET",TWEED HEADS,2485,NSW,2,0,GOVERNMENT FLOOD MAPPING,L,L
GANSW706135019,153.53096212,-28.18476473,"UNIT 8, 28 STANLEY STREET",TWEED HEADS,2485,NSW,2,0,GOVERNMENT FLOOD MAPPING,L,L
GANSW706144749,153.53295705,-28.17900193,19 THE QUARTERDECK,TWEED HEADS,2485,NSW,2,0,GOVERNMENT FLOOD MAPPING,L,L
GANSW712255944,153.53233201,-28.17757797,3 THE JIB,TWEED HEADS,2485,NSW,2,0,GOVERNMENT FLOOD MAPPING,L,L
GANSW706135009,153.53112890,-28.18413139,25 STANLEY STREET,TWEED HEADS,2485,NSW,2,0,GOVERNMENT FLOOD MAPPING,L,L
GANSW706145522,153.53130580,-28.17763272,1 KENT STREET,TWEED HEADS,2485,NSW,2,0,GOVERNMENT FLOOD MAPPING,L,L
GANSW706141511,153.53360755,-28.17722912,"UNIT 1, 50 LEEWARD TERRACE",TWEED HEADS,2485,NSW,2,0,GOVERNMENT FLOOD MAPPING,L,L
GANSW706135020,153.53096212,-28.18476473,28 STANLEY STREET,TWEED HEADS,2485,NSW,2,0,GOVERNMENT FLOOD MAPPING,L,L
GANSW706145257,153.53190725,-28.18384815,15 STANLEY STREET,TWEED HEADS,2485,NSW,2,0,GOVERNMENT FLOOD MAPPING,L,L
GANSW706172991,153.52967002,-28.17660106,"UNIT 1, 19 MILES STREET",TWEED HEADS,2485,NSW,2,0,GOVERNMENT FLOOD MAPPING,L,L
GANSW712351238,153.53193963,-28.17701957,"UNIT 1, 12 KENT STREET",TWEED HEADS,2485,NSW,4,1,GOVERNMENT FLOOD MAPPING,L,L
GANSW706141589,153.53211284,-28.18487154,11 MARGARET STREET,TWEED HEADS,2485,NSW,2,0,GOVERNMENT FLOOD MAPPING,L,L
GANSW706135017,153.53096212,-28.18476473,"UNIT 6, 28 STANLEY STREET",TWEED HEADS,2485,NSW,2,0,GOVERNMENT FLOOD MAPPING,L,L
GANSW706185820,153.53388142,-28.17969696,28 LEEWARD TERRACE,TWEED HEADS,2485,NSW,2,0,GOVERNMENT FLOOD MAPPING,L,L
GANSW706155534,153.53043233,-28.17569586,24 MURRABA CRESCENT,TWEED HEADS,2485,NSW,2,0,GOVERNMENT FLOOD MAPPING,L,L
GANSW706145264,153.53144106,-28.18401554,21 STANLEY STREET,TWEED HEADS,2485,NSW,2,0,GOVERNMENT FLOOD MAPPING,L,L
GANSW706185821,153.53348191,-28.17863991,29 LEEWARD TERRACE,TWEED HEADS,2485,NSW,2,0,GOVERNMENT FLOOD MAPPING,L,L
GANSW718009347,153.53249228,-28.18473530,"UNIT 1, 7 MARGARET STREET",TWEED HEADS,2485,NSW,2,0,GOVERNMENT FLOOD MAPPING,L,L
GANSW706145566,153.53288938,-28.17784173,4 THE JIB,TWEED HEADS,2485,NSW,2,0,GOVERNMENT FLOOD MAPPING,L,L
GANSW706145262,153.53315387,-28.18409094,2 STANLEY STREET,TWEED HEADS,2485,NSW,2,0,GOVERNMENT FLOOD MAPPING,L,L
GANSW706135238,153.53361428,-28.18116300,"UNIT 2, 14 LEEWARD TERRACE",TWEED HEADS,2485,NSW,2,0,GOVERNMENT FLOOD MAPPING,L,L
GANSW706145492,153.53329968,-28.17963151,19 LEEWARD TERRACE,TWEED HEADS,2485,NSW,2,0,GOVERNMENT FLOOD MAPPING,L,L
GANSW717929846,153.53112890,-28.18413139,"UNIT 1, 25 STANLEY STREET",TWEED HEADS,2485,NSW,2,0,GOVERNMENT FLOOD MAPPING,L,L
GANSW706145565,153.53278918,-28.17793044,2 THE JIB,TWEED HEADS,2485,NSW,2,0,GOVERNMENT FLOOD MAPPING,L,L
GANSW707666440,153.53336071,-28.18230641,16 ALVA STREET,TWEED HEADS,2485,NSW,2,0,GOVERNMENT FLOOD MAPPING,L,L
GANSW717957161,153.53266382,-28.18093345,1B LEEWARD TERRACE,TWEED HEADS,2485,NSW,2,0,GOVERNMENT FLOOD MAPPING,L,L
GANSW706141504,153.53275155,-28.18160532,4 LEEWARD TERRACE,TWEED HEADS,2485,NSW,2,0,GOVERNMENT FLOOD MAPPING,L,L
GANSW706172997,153.52945433,-28.17583228,5 MILES STREET,TWEED HEADS,2485,NSW,4,1,GOVERNMENT FLOOD MAPPING,L,L
GANSW706135024,153.53298095,-28.18360348,5 STANLEY STREET,TWEED HEADS,2485,NSW,2,0,GOVERNMENT FLOOD MAPPING,L,L
GANSW706141506,153.53412006,-28.17822594,42 LEEWARD TERRACE,TWEED HEADS,2485,NSW,2,0,GOVERNMENT FLOOD MAPPING,L,L
GANSW706145568,153.53245477,-28.17729299,7 THE JIB,TWEED HEADS,2485,NSW,2,0,GOVERNMENT FLOOD MAPPING,L,L
GANSW706175725,153.53249228,-28.18473530,7 MARGARET STREET,TWEED HEADS,2485,NSW,2,0,GOVERNMENT FLOOD MAPPING,L,L
GANSW706145524,153.53193963,-28.17701957,12 KENT STREET,TWEED HEADS,2485,NSW,4,1,GOVERNMENT FLOOD MAPPING,L,L
GANSW706105816,153.53313890,-28.18339724,2 ALVA STREET,TWEED HEADS,2485,NSW,2,0,GOVERNMENT FLOOD MAPPING,L,L
GANSW706165464,153.53334151,-28.18270875,3 SECOND AVENUE,TWEED HEADS,2485,NSW,2,0,GOVERNMENT FLOOD MAPPING,L,L
GANSW706155542,153.53108739,-28.17722223,7 MURRABA CRESCENT,TWEED HEADS,2485,NSW,2,0,GOVERNMENT FLOOD MAPPING,L,L
GANSW706141509,153.53369232,-28.17741295,48 LEEWARD TERRACE,TWEED HEADS,2485,NSW,2,0,GOVERNMENT FLOOD MAPPING,L,L
GANSW706135012,153.53096212,-28.18476473,"UNIT 1, 28 STANLEY STREET",TWEED HEADS,2485,NSW,2,0,GOVERNMENT FLOOD MAPPING,L,L
GANSW706155041,153.53211640,-28.18195607,47 THE QUARTERDECK,TWEED HEADS,2485,NSW,2,0,GOVERNMENT FLOOD MAPPING,L,L
GANSW706141503,153.53304188,-28.17702177,39 LEEWARD TERRACE,TWEED HEADS,2485,NSW,2,0,GOVERNMENT FLOOD MAPPING,L,L
GANSW706135015,153.53096212,-28.18476473,"UNIT 4, 28 STANLEY STREET",TWEED HEADS,2485,NSW,2,0,GOVERNMENT FLOOD MAPPING,L,L
GANSW706165460,153.53427911,-28.18420724,11 SECOND AVENUE,TWEED HEADS,2485,NSW,2,0,GOVERNMENT FLOOD MAPPING,L,L
GANSW718207887,153.53292392,-28.17828982,11A THE QUARTERDECK,TWEED HEADS,2485,NSW,2,0,GOVERNMENT FLOOD MAPPING,L,L
GANSW712313897,153.53026312,-28.17708067,15B MURRABA CRESCENT,TWEED HEADS,2485,NSW,2,0,GOVERNMENT FLOOD MAPPING,L,L
GANSW706135014,153.53096212,-28.18476473,"UNIT 3, 28 STANLEY STREET",TWEED HEADS,2485,NSW,2,0,GOVERNMENT FLOOD MAPPING,L,L
GANSW718772609,153.53412006,-28.17822594,7 RAZORBACK ROAD,TWEED HEADS,2485,NSW,2,0,GOVERNMENT FLOOD MAPPING,L,L
GANSW706165473,153.53368066,-28.18332113,7 SECOND AVENUE,TWEED HEADS,2485,NSW,2,0,GOVERNMENT FLOOD MAPPING,L,L
GANSW707680452,153.52971636,-28.17614177,13 MILES STREET,TWEED HEADS,2485,NSW,2,0,GOVERNMENT FLOOD MAPPING,L,L
GANSW706154738,153.53368713,-28.18356078,71 CHARLES STREET,TWEED HEADS,2485,NSW,2,0,GOVERNMENT FLOOD MAPPING,L,L
GANSW706141630,153.53029890,-28.17751705,11 MUGGA WAY,TWEED HEADS,2485,NSW,2,0,GOVERNMENT FLOOD MAPPING,L,L
GANSW706154733,153.53408539,-28.18306387,67 CHARLES STREET,TWEED HEADS,2485,NSW,2,0,GOVERNMENT FLOOD MAPPING,L,L
GANSW712334437,153.53327898,-28.18303025,3B SECOND AVENUE,TWEED HEADS,2485,NSW,2,0,GOVERNMENT FLOOD MAPPING,L,L
GANSW715479877,153.53059927,-28.17658808,"UNIT 1, 14 MURRABA CRESCENT",TWEED HEADS,2485,NSW,2,0,GOVERNMENT FLOOD MAPPING,L,L
GANSW718865421,153.53309409,-28.18451656,"UNIT 2, 1 MARGARET STREET",TWEED HEADS,2485,NSW,2,0,GOVERNMENT FLOOD MAPPING,L,L
GANSW717199694,153.53446088,-28.18445426,"UNIT 1, 15 SECOND AVENUE",TWEED HEADS,2485,NSW,2,0,GOVERNMENT FLOOD MAPPING,L,L
GANSW718865427,153.53309409,-28.18451656,"UNIT 8, 1 MARGARET STREET",TWEED HEADS,2485,NSW,2,0,GOVERNMENT FLOOD MAPPING,L,L
GANSW706105803,153.53244205,-28.18240737,13 ALVA STREET,TWEED HEADS,2485,NSW,2,0,GOVERNMENT FLOOD MAPPING,L,L
GANSW706134213,153.52924414,-28.17769736,4 DUCAT STREET,TWEED HEADS,2485,NSW,2,1,GOVERNMENT FLOOD MAPPING,M,M
GANSW712322482,153.53026312,-28.17708067,15A MURRABA CRESCENT,TWEED HEADS,2485,NSW,2,0,GOVERNMENT FLOOD MAPPING,L,L
GANSW706151763,153.53402945,-28.17888341,"UNIT 2, 36 LEEWARD TERRACE",TWEED HEADS,2485,NSW,2,0,GOVERNMENT FLOOD MAPPING,L,L
GANSW706155528,153.53005327,-28.17668768,19 MURRABA CRESCENT,TWEED HEADS,2485,NSW,2,0,GOVERNMENT FLOOD MAPPING,L,L
GANSW706141517,153.53327372,-28.18170502,"UNIT 2, 8 LEEWARD TERRACE",TWEED HEADS,2485,NSW,2,0,GOVERNMENT FLOOD MAPPING,L,L
GANSW706155529,153.53167220,-28.17645921,2 MURRABA CRESCENT,TWEED HEADS,2485,NSW,2,0,GOVERNMENT FLOOD MAPPING,L,L
GANSW706144793,153.53189840,-28.18331945,63 THE QUARTERDECK,TWEED HEADS,2485,NSW,2,0,GOVERNMENT FLOOD MAPPING,L,L
GANSW706145252,153.53241500,-28.18424879,10 STANLEY STREET,TWEED HEADS,2485,NSW,2,0,GOVERNMENT FLOOD MAPPING,L,L
GANSW706145248,153.52980586,-28.17718113,3 MUGGA WAY,TWEED HEADS,2485,NSW,2,0,GOVERNMENT FLOOD MAPPING,L,L
GANSW706185817,153.53340844,-28.17903927,25 LEEWARD TERRACE,TWEED HEADS,2485,NSW,2,0,GOVERNMENT FLOOD MAPPING,L,L
GANSW706145525,153.53204874,-28.17745194,2 KENT STREET,TWEED HEADS,2485,NSW,2,0,GOVERNMENT FLOOD MAPPING,L,L
GANSW707663381,153.53239221,-28.18100165,39 THE QUARTERDECK,TWEED HEADS,2485,NSW,2,1,GOVERNMENT FLOOD MAPPING,M,L
GANSW706145234,153.53108219,-28.17823955,18 MUGGA WAY,TWEED HEADS,2485,NSW,2,0,GOVERNMENT FLOOD MAPPING,M,L
GANSW707642021,153.52867566,-28.17879397,16 DUCAT STREET,TWEED HEADS,2485,NSW,2,0,GOVERNMENT FLOOD MAPPING,M,M
GANSW706155053,153.52938505,-28.18423249,58 THE QUARTERDECK,TWEED HEADS,2485,NSW,2,0,GOVERNMENT FLOOD MAPPING,M,L
GANSW706141597,153.53172970,-28.18501845,15 MARGARET STREET,TWEED HEADS,2485,NSW,2,0,GOVERNMENT FLOOD MAPPING,L,L
GANSW706182094,153.52634348,-28.18423471,80 DUCAT STREET,TWEED HEADS,2485,NSW,2,0,GOVERNMENT FLOOD MAPPING,M,M
GANSW706179270,153.53001403,-28.17957401,20 THE ANCHORAGE,TWEED HEADS,2485,NSW,2,0,GOVERNMENT FLOOD MAPPING,M,L
GANSW706134201,153.52779806,-28.18025914,34 DUCAT STREET,TWEED HEADS,2485,NSW,2,0,GOVERNMENT FLOOD MAPPING,M,L
GANSW706137814,153.52896032,-28.17831045,"UNIT 2, 10 DUCAT STREET",TWEED HEADS,2485,NSW,2,0,GOVERNMENT FLOOD MAPPING,M,M
GANSW706179269,153.53196368,-28.17973754,2 THE ANCHORAGE,TWEED HEADS,2485,NSW,2,0,GOVERNMENT FLOOD MAPPING,M,L
GANSW706135261,153.52965132,-28.18063688,20 THE BOWSPRIT,TWEED HEADS,2485,NSW,2,0,GOVERNMENT FLOOD MAPPING,M,L
GANSW706105804,153.53315149,-28.18243999,"UNIT 1, 14 ALVA STREET",TWEED HEADS,2485,NSW,2,0,GOVERNMENT FLOOD MAPPING,L,L
GANSW712326433,153.53067391,-28.17818207,"UNIT 3, 14 MUGGA WAY",TWEED HEADS,2485,NSW,2,0,GOVERNMENT FLOOD MAPPING,M,L
GANSW716890002,153.53313890,-28.18339724,"UNIT 1, 2 ALVA STREET",TWEED HEADS,2485,NSW,2,0,GOVERNMENT FLOOD MAPPING,L,L
GANSW706134214,153.52754066,-28.18069813,40 DUCAT STREET,TWEED HEADS,2485,NSW,2,0,GOVERNMENT FLOOD MAPPING,M,M
GANSW706179271,153.53003186,-28.17895503,21 THE ANCHORAGE,TWEED HEADS,2485,NSW,2,0,GOVERNMENT FLOOD MAPPING,M,L
GANSW706137847,153.52820714,-28.17959022,26 DUCAT STREET,TWEED HEADS,2485,NSW,2,0,GOVERNMENT FLOOD MAPPING,M,L
GANSW706144750,153.53163511,-28.17833567,"UNIT 1, 2 THE QUARTERDECK",TWEED HEADS,2485,NSW,2,0,GOVERNMENT FLOOD MAPPING,M,L
GANSW707628457,153.52936785,-28.17751219,2 DUCAT STREET,TWEED HEADS,2485,NSW,2,0,GOVERNMENT FLOOD MAPPING,M,M
GANSW706179005,153.52710401,-28.18597229,33 MERIDIAN WAY,TWEED HEADS,2485,NSW,2,0,GOVERNMENT FLOOD MAPPING,M,L
GANSW716897427,153.53172024,-28.18570111,"UNIT 4, 18 MARGARET STREET",TWEED HEADS,2485,NSW,2,0,GOVERNMENT FLOOD MAPPING,M,L
GANSW706154990,153.53135068,-28.18514806,"UNIT 1, 19 MARGARET STREET",TWEED HEADS,2485,NSW,2,0,GOVERNMENT FLOOD MAPPING,L,L
GANSW706162057,153.52860120,-28.18059455,8 COMPASS WAY,TWEED HEADS,2485,NSW,2,0,GOVERNMENT FLOOD MAPPING,M,L
GANSW718170395,153.52967002,-28.17660106,19A MILES STREET,TWEED HEADS,2485,NSW,2,0,GOVERNMENT FLOOD MAPPING,L,L
GANSW706155040,153.53094708,-28.18327130,46 THE QUARTERDECK,TWEED HEADS,2485,NSW,2,0,GOVERNMENT FLOOD MAPPING,M,L
GANSW706155530,153.53051808,-28.17600973,20 MURRABA CRESCENT,TWEED HEADS,2485,NSW,2,0,GOVERNMENT FLOOD MAPPING,L,L
GANSW706142576,153.53331863,-28.18364842,"UNIT 1, 1 STANLEY STREET",TWEED HEADS,2485,NSW,2,0,GOVERNMENT FLOOD MAPPING,L,L
GANSW706144491,153.52831759,-28.18396424,68 COMPANION WAY,TWEED HEADS,2485,NSW,2,0,GOVERNMENT FLOOD MAPPING,M,L
GANSW706148108,153.52936785,-28.17751219,"UNIT 1, 2 DUCAT STREET",TWEED HEADS,2485,NSW,2,0,GOVERNMENT FLOOD MAPPING,M,M
GANSW706134218,153.52736772,-28.18098614,44 DUCAT STREET,TWEED HEADS,2485,NSW,2,0,GOVERNMENT FLOOD MAPPING,M,M
GANSW706144762,153.53239221,-28.18100165,"UNIT 1, 39 THE QUARTERDECK",TWEED HEADS,2485,NSW,2,0,GOVERNMENT FLOOD MAPPING,M,L
GANSW706134219,153.52723055,-28.18132602,46 DUCAT STREET,TWEED HEADS,2485,NSW,2,0,GOVERNMENT FLOOD MAPPING,M,M
GANSW706164827,153.52976904,-28.18524219,"UNIT 1, 97 COMPANION WAY",TWEED HEADS,2485,NSW,2,0,GOVERNMENT FLOOD MAPPING,M,L
GANSW717199695,153.53437563,-28.18433098,"UNIT 2, 13 SECOND AVENUE",TWEED HEADS,2485,NSW,2,0,GOVERNMENT FLOOD MAPPING,L,L
GANSW706183287,153.53200687,-28.18592885,107 KENNEDY DRIVE,TWEED HEADS,2485,NSW,4,1,GOVERNMENT FLOOD MAPPING,H,H
GANSW712312938,153.53315387,-28.18409094,"UNIT 2, 2 STANLEY STREET",TWEED HEADS,2485,NSW,2,0,GOVERNMENT FLOOD MAPPING,L,L
GANSW712326435,153.53067391,-28.17818207,"UNIT 5, 14 MUGGA WAY",TWEED HEADS,2485,NSW,2,0,GOVERNMENT FLOOD MAPPING,M,L
GANSW706164834,153.52983088,-28.18499242,"UNIT 2, 99 COMPANION WAY",TWEED HEADS,2485,NSW,2,0,GOVERNMENT FLOOD MAPPING,M,L
GANSW706145244,153.53128528,-28.17826817,"UNIT 5, 20 MUGGA WAY",TWEED HEADS,2485,NSW,2,0,GOVERNMENT FLOOD MAPPING,M,L
GANSW716902873,153.52997413,-28.18454994,"UNIT 2, 83 THE QUARTERDECK",TWEED HEADS,2485,NSW,2,0,GOVERNMENT FLOOD MAPPING,M,L
GANSW706185826,153.53348377,-28.17844184,31 LEEWARD TERRACE,TWEED HEADS,2485,NSW,2,0,GOVERNMENT FLOOD MAPPING,L,L
GANSW706155540,153.53130865,-28.17706096,5 MURRABA CRESCENT,TWEED HEADS,2485,NSW,2,0,GOVERNMENT FLOOD MAPPING,L,L
GANSW706147820,153.53047180,-28.17959022,16 THE ANCHORAGE,TWEED HEADS,2485,NSW,2,0,GOVERNMENT FLOOD MAPPING,M,L
GANSW712331818,153.52584743,-28.18496653,99 DUCAT STREET,TWEED HEADS,2485,NSW,2,1,GOVERNMENT FLOOD MAPPING,H,H
GANSW706137819,153.52596072,-28.18555711,105 DUCAT STREET,TWEED HEADS,2485,NSW,2,0,GOVERNMENT FLOOD MAPPING,H,H
GANSW706134979,153.53045653,-28.17757366,13 MUGGA WAY,TWEED HEADS,2485,NSW,2,0,GOVERNMENT FLOOD MAPPING,L,L
GANSW706144490,153.52856752,-28.18404462,66 COMPANION WAY,TWEED HEADS,2485,NSW,2,0,GOVERNMENT FLOOD MAPPING,M,L
GANSW706175726,153.53252484,-28.18528464,8 MARGARET STREET,TWEED HEADS,2485,NSW,2,0,GOVERNMENT FLOOD MAPPING,L,L
GANSW706134211,153.52924414,-28.17769736,"UNIT 5, 4 DUCAT STREET",TWEED HEADS,2485,NSW,2,0,GOVERNMENT FLOOD MAPPING,M,M
GANSW706144758,153.53286054,-28.17958262,25 THE QUARTERDECK,TWEED HEADS,2485,NSW,2,0,GOVERNMENT FLOOD MAPPING,L,L
GANSW706141591,153.53192109,-28.18494091,"UNIT 2, 13 MARGARET STREET",TWEED HEADS,2485,NSW,2,0,GOVERNMENT FLOOD MAPPING,L,L
GANSW716897424,153.53172024,-28.18570111,"UNIT 1, 18 MARGARET STREET",TWEED HEADS,2485,NSW,2,0,GOVERNMENT FLOOD MAPPING,M,L
GANSW706145247,153.53147970,-28.17828462,22 MUGGA WAY,TWEED HEADS,2485,NSW,2,0,GOVERNMENT FLOOD MAPPING,M,L
GANSW706171791,153.52684021,-28.18226189,58 DUCAT STREET,TWEED HEADS,2485,NSW,2,0,GOVERNMENT FLOOD MAPPING,M,M
GANSW706134977,153.53047131,-28.17815353,"UNIT 3, 12 MUGGA WAY",TWEED HEADS,2485,NSW,2,0,GOVERNMENT FLOOD MAPPING,M,L
GANSW706148138,153.52987598,-28.18304730,8 NORMAN STREET,TWEED HEADS,2485,NSW,2,0,GOVERNMENT FLOOD MAPPING,M,L
GANSW718619459,153.53070382,-28.17720236,11B MURRABA CRESCENT,TWEED HEADS,2485,NSW,2,0,GOVERNMENT FLOOD MAPPING,L,L
GANSW706164823,153.52944090,-28.18537088,95 COMPANION WAY,TWEED HEADS,2485,NSW,2,0,GOVERNMENT FLOOD MAPPING,M,L
GANSW706144470,153.53384707,-28.18410477,86 CHARLES STREET,TWEED HEADS,2485,NSW,2,0,GOVERNMENT FLOOD MAPPING,L,L
GANSW706168593,153.52703276,-28.18179932,52 DUCAT STREET,TWEED HEADS,2485,NSW,2,0,GOVERNMENT FLOOD MAPPING,M,L
GANSW715479879,153.53094160,-28.17619480,16A MURRABA CRESCENT,TWEED HEADS,2485,NSW,2,0,GOVERNMENT FLOOD MAPPING,L,L
GANSW712312917,153.53288174,-28.18411823,"UNIT 1, 4 STANLEY STREET",TWEED HEADS,2485,NSW,2,0,GOVERNMENT FLOOD MAPPING,L,L
GANSW706141487,153.52734898,-28.18254717,44 PARKES DRIVE,TWEED HEADS,2485,NSW,2,0,GOVERNMENT FLOOD MAPPING,M,L
GANSW718101316,153.53426943,-28.18465964,35A KENNEDY DRIVE,TWEED HEADS,2485,NSW,2,0,GOVERNMENT FLOOD MAPPING,L,L
GANSW716902872,153.52997413,-28.18454994,"UNIT 1, 83 THE QUARTERDECK",TWEED HEADS,2485,NSW,2,0,GOVERNMENT FLOOD MAPPING,M,L
GANSW718009354,153.53249228,-28.18473530,"UNIT 8, 7 MARGARET STREET",TWEED HEADS,2485,NSW,2,0,GOVERNMENT FLOOD MAPPING,L,L
GANSW706135257,153.53006918,-28.18029992,17 THE BOWSPRIT,TWEED HEADS,2485,NSW,2,0,GOVERNMENT FLOOD MAPPING,M,L
GANSW706134744,153.53426531,-28.18400692,9 SECOND AVENUE,TWEED HEADS,2485,NSW,2,0,GOVERNMENT FLOOD MAPPING,L,L
GANSW706165466,153.53393251,-28.18253730,"UNIT 2, 4 SECOND AVENUE",TWEED HEADS,2485,NSW,2,0,GOVERNMENT FLOOD MAPPING,L,L
GANSW707673763,153.52875512,-28.18641643,29 MERIDIAN WAY,TWEED HEADS,2485,NSW,2,0,GOVERNMENT FLOOD MAPPING,M,L
GANSW706151891,153.53293290,-28.18510518,4 MARGARET STREET,TWEED HEADS,2485,NSW,2,0,GOVERNMENT FLOOD MAPPING,L,L
GANSW706151897,153.53268108,-28.18465905,"UNIT 6, 5 MARGARET STREET",TWEED HEADS,2485,NSW,2,0,GOVERNMENT FLOOD MAPPING,L,L
GANSW706165431,153.53135068,-28.18514806,"UNIT 6, 19 MARGARET STREET",TWEED HEADS,2485,NSW,2,0,GOVERNMENT FLOOD MAPPING,L,L
GANSW706178991,153.52799219,-28.18601720,"UNIT 1, 25 MERIDIAN WAY",TWEED HEADS,2485,NSW,2,0,GOVERNMENT FLOOD MAPPING,M,L
GANSW706105811,153.53256012,-28.18193258,17 ALVA STREET,TWEED HEADS,2485,NSW,2,0,GOVERNMENT FLOOD MAPPING,L,L
GANSW706164829,153.52976904,-28.18524219,97 COMPANION WAY,TWEED HEADS,2485,NSW,2,0,GOVERNMENT FLOOD MAPPING,M,L
GANSW706145534,153.53160649,-28.17708683,9 KENT STREET,TWEED HEADS,2485,NSW,2,0,GOVERNMENT FLOOD MAPPING,L,L
GANSW706165470,153.53393251,-28.18253730,4 SECOND AVENUE,TWEED HEADS,2485,NSW,2,0,GOVERNMENT FLOOD MAPPING,L,L
GANSW712336534,153.52584743,-28.18496653,"UNIT 1, 95 DUCAT STREET",TWEED HEADS,2485,NSW,2,1,GOVERNMENT FLOOD MAPPING,H,H
GANSW717199700,153.53446088,-28.18445426,"UNIT 4, 15 SECOND AVENUE",TWEED HEADS,2485,NSW,2,0,GOVERNMENT FLOOD MAPPING,L,L
GANSW706141593,153.53192109,-28.18494091,"UNIT 4, 13 MARGARET STREET",TWEED HEADS,2485,NSW,2,0,GOVERNMENT FLOOD MAPPING,L,L
GANSW706144482,153.53010299,-28.18494891,"UNIT 1, 101 COMPANION WAY",TWEED HEADS,2485,NSW,2,0,GOVERNMENT FLOOD MAPPING,M,L
GANSW706145532,153.53152492,-28.17721512,7 KENT STREET,TWEED HEADS,2485,NSW,2,0,GOVERNMENT FLOOD MAPPING,L,L
GANSW706141623,153.52974378,-28.17705071,1 MUGGA WAY,TWEED HEADS,2485,NSW,2,0,GOVERNMENT FLOOD MAPPING,L,L
GANSW706105806,153.53315149,-28.18243999,14 ALVA STREET,TWEED HEADS,2485,NSW,2,0,GOVERNMENT FLOOD MAPPING,L,L
GANSW706135234,153.53315384,-28.18042549,11 LEEWARD TERRACE,TWEED HEADS,2485,NSW,2,0,GOVERNMENT FLOOD MAPPING,L,L
GANSW706155021,153.53156235,-28.18169011,34 THE QUARTERDECK,TWEED HEADS,2485,NSW,2,0,GOVERNMENT FLOOD MAPPING,M,L
GANSW706145514,153.53331713,-28.17810373,35 LEEWARD TERRACE,TWEED HEADS,2485,NSW,2,0,GOVERNMENT FLOOD MAPPING,L,L
GANSW706151355,153.53261711,-28.18550054,53 KENNEDY DRIVE,TWEED HEADS,2485,NSW,2,0,GOVERNMENT FLOOD MAPPING,M,L
GANSW706148812,153.53273410,-28.18037579,33 THE QUARTERDECK,TWEED HEADS,2485,NSW,2,0,GOVERNMENT FLOOD MAPPING,L,L
GANSW712313894,153.52860223,-28.18307663,22 NORMAN STREET,TWEED HEADS,2485,NSW,2,0,GOVERNMENT FLOOD MAPPING,M,L
GANSW706144755,153.53212257,-28.18021053,22 THE QUARTERDECK,TWEED HEADS,2485,NSW,2,0,GOVERNMENT FLOOD MAPPING,M,L
GANSW706148808,153.53194262,-28.17781506,3 THE QUARTERDECK,TWEED HEADS,2485,NSW,2,0,GOVERNMENT FLOOD MAPPING,M,L
GANSW706154989,153.53154212,-28.18507799,"UNIT 6, 17 MARGARET STREET",TWEED HEADS,2485,NSW,2,0,GOVERNMENT FLOOD MAPPING,L,L
GANSW715497903,153.53326958,-28.18285375,"UNIT 1, 3A SECOND AVENUE",TWEED HEADS,2485,NSW,2,0,GOVERNMENT FLOOD MAPPING,L,L
GANSW706155045,153.53060363,-28.18344182,50 THE QUARTERDECK,TWEED HEADS,2485,NSW,2,0,GOVERNMENT FLOOD MAPPING,M,L
GANSW717484908,153.52997413,-28.18454994,83A THE QUARTERDECK,TWEED HEADS,2485,NSW,2,0,GOVERNMENT FLOOD MAPPING,M,L
GANSW712363206,153.52799219,-28.18601720,"UNIT 2, 25 MERIDIAN WAY",TWEED HEADS,2485,NSW,2,0,GOVERNMENT FLOOD MAPPING,M,L
GANSW706141528,153.52960567,-28.18210479,18 THE MAINBRACE,TWEED HEADS,2485,NSW,2,0,GOVERNMENT FLOOD MAPPING,M,L
GANSW706185507,153.52870000,-28.18285988,20 NORMAN STREET,TWEED HEADS,2485,NSW,2,0,GOVERNMENT FLOOD MAPPING,M,L
GANSW706144763,153.53239221,-28.18100165,"UNIT 2, 39 THE QUARTERDECK",TWEED HEADS,2485,NSW,2,0,GOVERNMENT FLOOD MAPPING,M,L
GANSW706144801,153.53217760,-28.17856088,8 THE QUARTERDECK,TWEED HEADS,2485,NSW,2,0,GOVERNMENT FLOOD MAPPING,L,L
GANSW706144765,153.53181021,-28.17838640,4 THE QUARTERDECK,TWEED HEADS,2485,NSW,2,0,GOVERNMENT FLOOD MAPPING,M,L
GANSW706105807,153.53249750,-28.18219518,15 ALVA STREET,TWEED HEADS,2485,NSW,2,0,GOVERNMENT FLOOD MAPPING,L,L
GANSW706168229,153.52848145,-28.18526778,82 COMPANION WAY,TWEED HEADS,2485,NSW,2,0,GOVERNMENT FLOOD MAPPING,M,L
GANSW706145489,153.53365915,-28.18092822,16 LEEWARD TERRACE,TWEED HEADS,2485,NSW,2,0,GOVERNMENT FLOOD MAPPING,L,L
GANSW706157946,153.53367349,-28.18420822,88 CHARLES STREET,TWEED HEADS,2485,NSW,2,0,GOVERNMENT FLOOD MAPPING,L,L
GANSW706137828,153.52867566,-28.17879397,"UNIT 2, 16 DUCAT STREET",TWEED HEADS,2485,NSW,2,0,GOVERNMENT FLOOD MAPPING,M,M
GANSW706145527,153.53212509,-28.17731830,4 KENT STREET,TWEED HEADS,2485,NSW,2,0,GOVERNMENT FLOOD MAPPING,L,L
GANSW706145236,153.52957238,-28.17777872,"UNIT 1, 2 MUGGA WAY",TWEED HEADS,2485,NSW,2,0,GOVERNMENT FLOOD MAPPING,M,L
GANSW706137821,153.52886527,-28.17847211,12 DUCAT STREET,TWEED HEADS,2485,NSW,2,0,GOVERNMENT FLOOD MAPPING,M,M
GANSW706164839,153.52826263,-28.18132043,12 COMPASS WAY,TWEED HEADS,2485,NSW,2,0,GOVERNMENT FLOOD MAPPING,M,L
GANSW706141443,153.52961195,-28.18669542,87 KENNEDY DRIVE,TWEED HEADS,2485,NSW,2,0,GOVERNMENT FLOOD MAPPING,M,M
GANSW712343506,153.53108219,-28.17823955,"UNIT 4, 18 MUGGA WAY",TWEED HEADS,2485,NSW,2,0,GOVERNMENT FLOOD MAPPING,M,L
GANSW706182207,153.53378143,-28.18469539,39 KENNEDY DRIVE,TWEED HEADS,2485,NSW,2,0,GOVERNMENT FLOOD MAPPING,L,L
GANSW706158368,153.52671136,-28.18258152,62 DUCAT STREET,TWEED HEADS,2485,NSW,2,0,GOVERNMENT FLOOD MAPPING,M,M
GANSW706135258,153.52973112,-28.18084342,18 THE BOWSPRIT,TWEED HEADS,2485,NSW,2,0,GOVERNMENT FLOOD MAPPING,M,L
GANSW706144489,153.52881018,-28.18408597,64 COMPANION WAY,TWEED HEADS,2485,NSW,2,0,GOVERNMENT FLOOD MAPPING,M,L
GANSW706135265,153.53126066,-28.18099724,4 THE BOWSPRIT,TWEED HEADS,2485,NSW,2,0,GOVERNMENT FLOOD MAPPING,M,L
GANSW706145528,153.53144816,-28.17734964,5 KENT STREET,TWEED HEADS,2485,NSW,2,0,GOVERNMENT FLOOD MAPPING,L,L
GANSW706135267,153.53102336,-28.18098594,6 THE BOWSPRIT,TWEED HEADS,2485,NSW,2,0,GOVERNMENT FLOOD MAPPING,M,L
GANSW706171843,153.52584743,-28.18496653,95 DUCAT STREET,TWEED HEADS,2485,NSW,2,1,GOVERNMENT FLOOD MAPPING,H,H
GANSW706175108,153.52878071,-28.18467605,"UNIT 2, 98 COMPANION WAY",TWEED HEADS,2485,NSW,2,0,GOVERNMENT FLOOD MAPPING,M,L
GANSW706155483,153.52986288,-28.17801501,6 MUGGA WAY,TWEED HEADS,2485,NSW,2,0,GOVERNMENT FLOOD MAPPING,M,L
GANSW706135251,153.53071651,-28.18041226,11 THE BOWSPRIT,TWEED HEADS,2485,NSW,2,0,GOVERNMENT FLOOD MAPPING,M,L
GANSW706105800,153.53294839,-28.18270240,10 ALVA STREET,TWEED HEADS,2485,NSW,2,0,GOVERNMENT FLOOD MAPPING,L,L
GANSW706185514,153.52998420,-28.18321405,6 NORMAN STREET,TWEED HEADS,2485,NSW,2,0,GOVERNMENT FLOOD MAPPING,M,L
GANSW706151348,153.53302149,-28.18532386,49 KENNEDY DRIVE,TWEED HEADS,2485,NSW,2,0,GOVERNMENT FLOOD MAPPING,L,L
GANSW715469388,153.53399267,-28.17908488,34B LEEWARD TERRACE,TWEED HEADS,2485,NSW,2,0,GOVERNMENT FLOOD MAPPING,L,L
GANSW706141515,153.53308118,-28.18082143,7 LEEWARD TERRACE,TWEED HEADS,2485,NSW,2,0,GOVERNMENT FLOOD MAPPING,L,L
GANSW706135256,153.52994507,-28.18089819,16 THE BOWSPRIT,TWEED HEADS,2485,NSW,2,0,GOVERNMENT FLOOD MAPPING,M,L
GANSW706178992,153.52799219,-28.18601720,"UNIT 3, 25 MERIDIAN WAY",TWEED HEADS,2485,NSW,2,0,GOVERNMENT FLOOD MAPPING,M,L
GANSW706135326,153.52931097,-28.18212263,20 THE MAINBRACE,TWEED HEADS,2485,NSW,2,0,GOVERNMENT FLOOD MAPPING,M,L
GANSW717528796,153.53021373,-28.18556131,"UNIT 1, 29 MARGARET STREET",TWEED HEADS,2485,NSW,2,0,GOVERNMENT FLOOD MAPPING,M,L
GANSW706182206,153.53397351,-28.18462219,37 KENNEDY DRIVE,TWEED HEADS,2485,NSW,2,0,GOVERNMENT FLOOD MAPPING,L,L
GANSW706135023,153.53288174,-28.18411823,4 STANLEY STREET,TWEED HEADS,2485,NSW,2,0,GOVERNMENT FLOOD MAPPING,L,L
GANSW706185506,153.53021218,-28.18360347,2 NORMAN STREET,TWEED HEADS,2485,NSW,2,0,GOVERNMENT FLOOD MAPPING,M,L
GANSW706148139,153.53035918,-28.18461645,9 NORMAN STREET,TWEED HEADS,2485,NSW,2,0,GOVERNMENT FLOOD MAPPING,L,L
GANSW706145526,153.53136582,-28.17748688,3 KENT STREET,TWEED HEADS,2485,NSW,2,0,GOVERNMENT FLOOD MAPPING,L,L
GANSW706168226,153.52830670,-28.18474201,76 COMPANION WAY,TWEED HEADS,2485,NSW,2,0,GOVERNMENT FLOOD MAPPING,M,L
GANSW706145589,153.53060623,-28.18171075,9 THE MAINBRACE,TWEED HEADS,2485,NSW,2,0,GOVERNMENT FLOOD MAPPING,M,L
GANSW706145225,153.52968993,-28.17795104,"UNIT 4, 4 MUGGA WAY",TWEED HEADS,2485,NSW,2,0,GOVERNMENT FLOOD MAPPING,M,L
GANSW706162049,153.52745721,-28.18171934,23 COMPASS WAY,TWEED HEADS,2485,NSW,2,0,GOVERNMENT FLOOD MAPPING,M,L
GANSW712343504,153.53108219,-28.17823955,"UNIT 2, 18 MUGGA WAY",TWEED HEADS,2485,NSW,2,0,GOVERNMENT FLOOD MAPPING,M,L
GANSW706164844,153.52792203,-28.18215498,17 COMPASS WAY,TWEED HEADS,2485,NSW,2,0,GOVERNMENT FLOOD MAPPING,M,L
GANSW712276604,153.53243273,-28.17785319,9 THE JIB,TWEED HEADS,2485,NSW,4,1,GOVERNMENT FLOOD MAPPING,L,L
GANSW706134981,153.53062796,-28.17759905,15 MUGGA WAY,TWEED HEADS,2485,NSW,2,0,GOVERNMENT FLOOD MAPPING,L,L
GANSW706162047,153.52728268,-28.18212930,21 COMPASS WAY,TWEED HEADS,2485,NSW,2,0,GOVERNMENT FLOOD MAPPING,M,L
GANSW706145529,153.53219727,-28.17717903,"UNIT 1, 6 KENT STREET",TWEED HEADS,2485,NSW,2,0,GOVERNMENT FLOOD MAPPING,L,L
GANSW706179011,153.52693766,-28.18534106,37 MERIDIAN WAY,TWEED HEADS,2485,NSW,2,0,GOVERNMENT FLOOD MAPPING,M,L
GANSW706135266,153.53132423,-28.18050074,5 THE BOWSPRIT,TWEED HEADS,2485,NSW,2,0,GOVERNMENT FLOOD MAPPING,M,L
GANSW706148810,153.53276634,-28.18017724,31 THE QUARTERDECK,TWEED HEADS,2485,NSW,2,0,GOVERNMENT FLOOD MAPPING,L,L
GANSW706155051,153.52956541,-28.18414521,56 THE QUARTERDECK,TWEED HEADS,2485,NSW,2,0,GOVERNMENT FLOOD MAPPING,M,L
GANSW706165468,153.53393251,-28.18253730,"UNIT 4, 4 SECOND AVENUE",TWEED HEADS,2485,NSW,2,0,GOVERNMENT FLOOD MAPPING,L,L
GANSW707680453,153.52967002,-28.17660106,19 MILES STREET,TWEED HEADS,2485,NSW,2,0,GOVERNMENT FLOOD MAPPING,L,L
GANSW717930593,153.53249016,-28.17678971,13 THE JIB,TWEED HEADS,2485,NSW,2,0,GOVERNMENT FLOOD MAPPING,L,L
GANSW707666748,153.52957238,-28.17777872,2 MUGGA WAY,TWEED HEADS,2485,NSW,2,0,GOVERNMENT FLOOD MAPPING,M,L
GANSW712280397,153.52943662,-28.18519808,"UNIT 1, 91 COMPANION WAY",TWEED HEADS,2485,NSW,2,0,GOVERNMENT FLOOD MAPPING,M,L
GANSW706185505,153.52939419,-28.18333742,19 NORMAN STREET,TWEED HEADS,2485,NSW,2,0,GOVERNMENT FLOOD MAPPING,M,L
GANSW706151881,153.53021373,-28.18556131,29 MARGARET STREET,TWEED HEADS,2485,NSW,2,0,GOVERNMENT FLOOD MAPPING,M,L
GANSW706164721,153.53200687,-28.18592885,63 KENNEDY DRIVE,TWEED HEADS,2485,NSW,4,1,GOVERNMENT FLOOD MAPPING,M,L
GANSW715481984,153.53048619,-28.18491946,5 NORMAN STREET,TWEED HEADS,2485,NSW,2,0,GOVERNMENT FLOOD MAPPING,L,L
GANSW706134978,153.53047131,-28.17815353,"UNIT 4, 12 MUGGA WAY",TWEED HEADS,2485,NSW,2,0,GOVERNMENT FLOOD MAPPING,M,L
GANSW706145563,153.53280331,-28.17692629,11 THE JIB,TWEED HEADS,2485,NSW,2,0,GOVERNMENT FLOOD MAPPING,L,L
GANSW706151347,153.53318711,-28.18520050,47 KENNEDY DRIVE,TWEED HEADS,2485,NSW,2,0,GOVERNMENT FLOOD MAPPING,L,L
GANSW706182205,153.53407059,-28.18442673,35 KENNEDY DRIVE,TWEED HEADS,2485,NSW,2,0,GOVERNMENT FLOOD MAPPING,L,L
GANSW706168272,153.52786575,-28.18588185,24 MERIDIAN WAY,TWEED HEADS,2485,NSW,2,0,GOVERNMENT FLOOD MAPPING,M,L
GANSW706151359,153.53242997,-28.18556836,55 KENNEDY DRIVE,TWEED HEADS,2485,NSW,2,0,GOVERNMENT FLOOD MAPPING,M,L
GANSW706135270,153.53091917,-28.18044176,9 THE BOWSPRIT,TWEED HEADS,2485,NSW,2,0,GOVERNMENT FLOOD MAPPING,M,L
GANSW706157999,153.52726291,-28.18385643,12 MERIDIAN WAY,TWEED HEADS,2485,NSW,2,0,GOVERNMENT FLOOD MAPPING,M,L
GANSW706144479,153.52904502,-28.18474499,"UNIT 1, 100 COMPANION WAY",TWEED HEADS,2485,NSW,2,0,GOVERNMENT FLOOD MAPPING,M,L
GANSW706165462,153.53454292,-28.18460617,17 SECOND AVENUE,TWEED HEADS,2485,NSW,2,0,GOVERNMENT FLOOD MAPPING,L,L
GANSW706141626,153.53026909,-28.17811099,"UNIT 3, 10 MUGGA WAY",TWEED HEADS,2485,NSW,2,0,GOVERNMENT FLOOD MAPPING,M,L
GANSW706145259,153.53175307,-28.18390391,17 STANLEY STREET,TWEED HEADS,2485,NSW,2,0,GOVERNMENT FLOOD MAPPING,L,L
GANSW706151890,153.52971231,-28.18582324,35 MARGARET STREET,TWEED HEADS,2485,NSW,2,0,GOVERNMENT FLOOD MAPPING,M,L
GANSW718865422,153.53309409,-28.18451656,"UNIT 3, 1 MARGARET STREET",TWEED HEADS,2485,NSW,2,0,GOVERNMENT FLOOD MAPPING,L,L
GANSW717199696,153.53446088,-28.18445426,"UNIT 2, 15 SECOND AVENUE",TWEED HEADS,2485,NSW,2,0,GOVERNMENT FLOOD MAPPING,L,L
GANSW706155050,153.53198487,-28.18259318,55 THE QUARTERDECK,TWEED HEADS,2485,NSW,2,0,GOVERNMENT FLOOD MAPPING,M,L
GANSW706171840,153.52656892,-28.18538650,92 DUCAT STREET,TWEED HEADS,2485,NSW,2,0,GOVERNMENT FLOOD MAPPING,M,L
GANSW706141963,153.52558578,-28.18539003,111 KENNEDY DRIVE,TWEED HEADS,2485,NSW,2,1,GOVERNMENT FLOOD MAPPING,M,H
GANSW706134203,153.52770995,-28.18040538,36 DUCAT STREET,TWEED HEADS,2485,NSW,2,0,GOVERNMENT FLOOD MAPPING,M,L
GANSW706141632,153.53047131,-28.17815353,"UNIT 2, 12 MUGGA WAY",TWEED HEADS,2485,NSW,2,0,GOVERNMENT FLOOD MAPPING,M,L
GANSW706141519,153.53311751,-28.18062321,9 LEEWARD TERRACE,TWEED HEADS,2485,NSW,2,0,GOVERNMENT FLOOD MAPPING,L,L
GANSW706145272,153.53095052,-28.17658714,10 MURRABA CRESCENT,TWEED HEADS,2485,NSW,2,0,GOVERNMENT FLOOD MAPPING,L,L
GANSW706148787,153.53270802,-28.17830399,11 THE QUARTERDECK,TWEED HEADS,2485,NSW,2,0,GOVERNMENT FLOOD MAPPING,L,L
GANSW706134210,153.52924414,-28.17769736,"UNIT 4, 4 DUCAT STREET",TWEED HEADS,2485,NSW,2,0,GOVERNMENT FLOOD MAPPING,M,M
GANSW706113116,153.53243327,-28.18310788,5 ALVA STREET,TWEED HEADS,2485,NSW,2,0,GOVERNMENT FLOOD MAPPING,L,L
GANSW706168271,153.52773822,-28.18575791,23 MERIDIAN WAY,TWEED HEADS,2485,NSW,2,0,GOVERNMENT FLOOD MAPPING,M,L
GANSW706145493,153.53253021,-28.18156307,2 LEEWARD TERRACE,TWEED HEADS,2485,NSW,2,0,GOVERNMENT FLOOD MAPPING,L,L
GANSW718417339,153.53045653,-28.17757366,13A MUGGA WAY,TWEED HEADS,2485,NSW,2,0,GOVERNMENT FLOOD MAPPING,L,L
GANSW706164723,153.53111891,-28.18610466,67 KENNEDY DRIVE,TWEED HEADS,2485,NSW,2,0,GOVERNMENT FLOOD MAPPING,M,M
GANSW706172992,153.52967002,-28.17660106,"UNIT 2, 19 MILES STREET",TWEED HEADS,2485,NSW,2,0,GOVERNMENT FLOOD MAPPING,L,L
GANSW706185815,153.53337243,-28.17923556,23 LEEWARD TERRACE,TWEED HEADS,2485,NSW,2,0,GOVERNMENT FLOOD MAPPING,L,L
GANSW706135007,153.53128318,-28.18407384,23 STANLEY STREET,TWEED HEADS,2485,NSW,2,0,GOVERNMENT FLOOD MAPPING,L,L
GANSW715469387,153.53399267,-28.17908488,34A LEEWARD TERRACE,TWEED HEADS,2485,NSW,2,0,GOVERNMENT FLOOD MAPPING,L,L
GANSW706172998,153.52945433,-28.17583228,7 MILES STREET,TWEED HEADS,2485,NSW,4,1,GOVERNMENT FLOOD MAPPING,L,L
GANSW712399921,153.53399095,-28.18282350,4A SECOND AVENUE,TWEED HEADS,2485,NSW,2,0,GOVERNMENT FLOOD MAPPING,L,L
GANSW706145567,153.53300322,-28.17768371,6 THE JIB,TWEED HEADS,2485,NSW,2,0,GOVERNMENT FLOOD MAPPING,L,L
GANSW706144756,153.53289187,-28.17938819,23 THE QUARTERDECK,TWEED HEADS,2485,NSW,2,0,GOVERNMENT FLOOD MAPPING,L,L
GANSW706113121,153.53290997,-28.18285928,8 ALVA STREET,TWEED HEADS,2485,NSW,2,0,GOVERNMENT FLOOD MAPPING,L,L
GANSW706157998,153.52725957,-28.18366992,11 MERIDIAN WAY,TWEED HEADS,2485,NSW,2,0,GOVERNMENT FLOOD MAPPING,M,L
GANSW706141440,153.53041102,-28.18646586,75 KENNEDY DRIVE,TWEED HEADS,2485,NSW,2,0,GOVERNMENT FLOOD MAPPING,H,H
GANSW706135232,153.53266382,-28.18093345,1 LEEWARD TERRACE,TWEED HEADS,2485,NSW,2,0,GOVERNMENT FLOOD MAPPING,L,L
GANSW706137825,153.52877153,-28.17863350,14 DUCAT STREET,TWEED HEADS,2485,NSW,2,0,GOVERNMENT FLOOD MAPPING,M,M
GANSW706145490,153.53326284,-28.17983212,17 LEEWARD TERRACE,TWEED HEADS,2485,NSW,2,0,GOVERNMENT FLOOD MAPPING,L,L
GANSW706144766,153.53132225,-28.18283866,40 THE QUARTERDECK,TWEED HEADS,2485,NSW,2,0,GOVERNMENT FLOOD MAPPING,M,L
GANSW718691105,153.52970962,-28.17564437,29 MURRABA CRESCENT,TWEED HEADS,2485,NSW,2,0,GOVERNMENT FLOOD MAPPING,L,L
GANSW706155047,153.53040360,-28.18355343,52 THE QUARTERDECK,TWEED HEADS,2485,NSW,2,0,GOVERNMENT FLOOD MAPPING,M,L
GANSW706164832,153.52878071,-28.18467605,98 COMPANION WAY,TWEED HEADS,2485,NSW,2,0,GOVERNMENT FLOOD MAPPING,M,L
GANSW712295720,153.53395555,-28.17928978,"UNIT 2, 32 LEEWARD TERRACE",TWEED HEADS,2485,NSW,2,0,GOVERNMENT FLOOD MAPPING,L,L
GANSW706151889,153.52984195,-28.18626007,34 MARGARET STREET,TWEED HEADS,2485,NSW,2,0,GOVERNMENT FLOOD MAPPING,H,H
GANSW712313918,153.53055104,-28.18505943,3-5 NORMAN STREET,TWEED HEADS,2485,NSW,2,0,GOVERNMENT FLOOD MAPPING,L,L
GANSW706165250,153.53230133,-28.18480372,9 MARGARET STREET,TWEED HEADS,2485,NSW,2,0,GOVERNMENT FLOOD MAPPING,L,L
GANSW706165459,153.53345280,-28.18254515,1 SECOND AVENUE,TWEED HEADS,2485,NSW,2,0,GOVERNMENT FLOOD MAPPING,L,L
GANSW706135010,153.53114600,-28.18470526,26 STANLEY STREET,TWEED HEADS,2485,NSW,2,0,GOVERNMENT FLOOD MAPPING,L,L
GANSW706179258,153.53211975,-28.17935752,1 THE ANCHORAGE,TWEED HEADS,2485,NSW,2,0,GOVERNMENT FLOOD MAPPING,M,L
GANSW706168590,153.52716335,-28.18148497,48 DUCAT STREET,TWEED HEADS,2485,NSW,2,0,GOVERNMENT FLOOD MAPPING,M,L
GANSW706182089,153.52631127,-28.18407245,78 DUCAT STREET,TWEED HEADS,2485,NSW,2,0,GOVERNMENT FLOOD MAPPING,H,H
GANSW706144771,153.53214807,-28.18179271,"UNIT 1, 45 THE QUARTERDECK",TWEED HEADS,2485,NSW,2,0,GOVERNMENT FLOOD MAPPING,L,L
GANSW706145238,153.52957238,-28.17777872,"UNIT 3, 2 MUGGA WAY",TWEED HEADS,2485,NSW,2,0,GOVERNMENT FLOOD MAPPING,M,L
GANSW718018047,153.53437563,-28.18433098,13 SECOND AVENUE,TWEED HEADS,2485,NSW,2,0,GOVERNMENT FLOOD MAPPING,L,L
GANSW706179003,153.52710401,-28.18597229,"UNIT 1, 33 MERIDIAN WAY",TWEED HEADS,2485,NSW,2,0,GOVERNMENT FLOOD MAPPING,M,L
GANSW706145274,153.53078032,-28.17658728,12 MURRABA CRESCENT,TWEED HEADS,2485,NSW,2,0,GOVERNMENT FLOOD MAPPING,L,L
GANSW716334677,153.53172024,-28.18570111,16 MARGARET STREET,TWEED HEADS,2485,NSW,2,0,GOVERNMENT FLOOD MAPPING,M,L
GANSW706144789,153.53194964,-28.18292633,59 THE QUARTERDECK,TWEED HEADS,2485,NSW,2,0,GOVERNMENT FLOOD MAPPING,L,L
GANSW706155526,153.53011455,-28.17690570,17 MURRABA CRESCENT,TWEED HEADS,2485,NSW,2,0,GOVERNMENT FLOOD MAPPING,L,L
GANSW706165313,153.53265276,-28.17802167,7 THE QUARTERDECK,TWEED HEADS,2485,NSW,2,0,GOVERNMENT FLOOD MAPPING,L,L
GANSW717199697,153.53437563,-28.18433098,"UNIT 3, 13 SECOND AVENUE",TWEED HEADS,2485,NSW,2,0,GOVERNMENT FLOOD MAPPING,L,L
GANSW706145582,153.52914063,-28.18174938,23 THE MAINBRACE,TWEED HEADS,2485,NSW,2,0,GOVERNMENT FLOOD MAPPING,M,L
GANSW706141592,153.53192109,-28.18494091,"UNIT 3, 13 MARGARET STREET",TWEED HEADS,2485,NSW,2,0,GOVERNMENT FLOOD MAPPING,L,L
GANSW715464399,153.53328443,-28.18509257,45B KENNEDY DRIVE,TWEED HEADS,2485,NSW,2,0,GOVERNMENT FLOOD MAPPING,L,L
GANSW706144770,153.53112209,-28.18317097,44 THE QUARTERDECK,TWEED HEADS,2485,NSW,2,0,GOVERNMENT FLOOD MAPPING,M,L
GANSW706148788,153.53229964,-28.17889406,12 THE QUARTERDECK,TWEED HEADS,2485,NSW,2,0,GOVERNMENT FLOOD MAPPING,L,L
GANSW706141590,153.53192109,-28.18494091,"UNIT 1, 13 MARGARET STREET",TWEED HEADS,2485,NSW,2,0,GOVERNMENT FLOOD MAPPING,L,L
GANSW706164714,153.53219954,-28.18553224,57 KENNEDY DRIVE,TWEED HEADS,2485,NSW,2,0,GOVERNMENT FLOOD MAPPING,M,L
GANSW706164722,153.53148891,-28.18591035,65 KENNEDY DRIVE,TWEED HEADS,2485,NSW,2,0,GOVERNMENT FLOOD MAPPING,M,L
GANSW706171838,153.52650629,-28.18506907,88 DUCAT STREET,TWEED HEADS,2485,NSW,2,0,GOVERNMENT FLOOD MAPPING,M,L
GANSW706165443,153.53116407,-28.18520621,"UNIT 7, 21 MARGARET STREET",TWEED HEADS,2485,NSW,2,0,GOVERNMENT FLOOD MAPPING,L,L
GANSW712336528,153.52671082,-28.18606872,"SHOP 6, 100 DUCAT STREET",TWEED HEADS,2485,NSW,2,0,GOVERNMENT FLOOD MAPPING,M,L
GANSW706141661,153.53113745,-28.17662467,8 MURRABA CRESCENT,TWEED HEADS,2485,NSW,2,0,GOVERNMENT FLOOD MAPPING,L,L
GANSW706144487,153.53025648,-28.18508649,103 COMPANION WAY,TWEED HEADS,2485,NSW,2,0,GOVERNMENT FLOOD MAPPING,M,L
GANSW706135237,153.53361428,-28.18116300,"UNIT 1, 14 LEEWARD TERRACE",TWEED HEADS,2485,NSW,2,0,GOVERNMENT FLOOD MAPPING,L,L
GANSW706137816,153.52671082,-28.18606872,100 DUCAT STREET,TWEED HEADS,2485,NSW,2,0,GOVERNMENT FLOOD MAPPING,M,L
GANSW706171790,153.52690351,-28.18210720,56 DUCAT STREET,TWEED HEADS,2485,NSW,2,0,GOVERNMENT FLOOD MAPPING,M,M
GANSW706162058,153.52849256,-28.18077826,9 COMPASS WAY,TWEED HEADS,2485,NSW,2,1,GOVERNMENT FLOOD MAPPING,M,L
GANSW712336525,153.52671082,-28.18606872,"SHOP 3, 100 DUCAT STREET",TWEED HEADS,2485,NSW,2,0,GOVERNMENT FLOOD MAPPING,M,L
GANSW706145232,153.53087851,-28.17820265,"UNIT 5, 16 MUGGA WAY",TWEED HEADS,2485,NSW,2,1,GOVERNMENT FLOOD MAPPING,M,L
GANSW706141505,153.53410242,-28.17846412,40 LEEWARD TERRACE,TWEED HEADS,2485,NSW,2,0,GOVERNMENT FLOOD MAPPING,L,L
GANSW706155539,153.53140841,-28.17644972,4 MURRABA CRESCENT,TWEED HEADS,2485,NSW,2,0,GOVERNMENT FLOOD MAPPING,L,L
GANSW707663382,153.53214807,-28.18179271,45 THE QUARTERDECK,TWEED HEADS,2485,NSW,2,0,GOVERNMENT FLOOD MAPPING,L,L
GANSW707604867,153.53360755,-28.17722912,50 LEEWARD TERRACE,TWEED HEADS,2485,NSW,2,0,GOVERNMENT FLOOD MAPPING,L,L
GANSW706135028,153.53238311,-28.18368794,9 STANLEY STREET,TWEED HEADS,2485,NSW,2,0,GOVERNMENT FLOOD MAPPING,L,L
GANSW706151892,153.53268108,-28.18465905,"UNIT 1, 5 MARGARET STREET",TWEED HEADS,2485,NSW,2,0,GOVERNMENT FLOOD MAPPING,L,L
GANSW706165451,153.53064600,-28.18599747,26 MARGARET STREET,TWEED HEADS,2485,NSW,2,0,GOVERNMENT FLOOD MAPPING,M,M
GANSW706145542,153.53000875,-28.18162509,15 THE MAINBRACE,TWEED HEADS,2485,NSW,2,0,GOVERNMENT FLOOD MAPPING,M,L
GANSW706145223,153.52968993,-28.17795104,"UNIT 2, 4 MUGGA WAY",TWEED HEADS,2485,NSW,2,0,GOVERNMENT FLOOD MAPPING,M,L
GANSW706155525,153.53073183,-28.17630461,16 MURRABA CRESCENT,TWEED HEADS,2485,NSW,2,0,GOVERNMENT FLOOD MAPPING,L,L
GANSW706165463,153.53380470,-28.18217094,2 SECOND AVENUE,TWEED HEADS,2485,NSW,2,0,GOVERNMENT FLOOD MAPPING,L,L
GANSW716890003,153.53313890,-28.18339724,"UNIT 2, 2 ALVA STREET",TWEED HEADS,2485,NSW,2,0,GOVERNMENT FLOOD MAPPING,L,L
GANSW717559563,153.53108739,-28.17722223,"UNIT 2, 7 MURRABA CRESCENT",TWEED HEADS,2485,NSW,2,0,GOVERNMENT FLOOD MAPPING,L,L
GANSW717484003,153.53393251,-28.18253730,"UNIT 6, 4 SECOND AVENUE",TWEED HEADS,2485,NSW,2,0,GOVERNMENT FLOOD MAPPING,L,L
GANSW712295707,153.53173116,-28.18500572,"UNIT 5, 15 MARGARET STREET",TWEED HEADS,2485,NSW,2,0,GOVERNMENT FLOOD MAPPING,L,L
GANSW706155538,153.53156734,-28.17691055,3 MURRABA CRESCENT,TWEED HEADS,2485,NSW,2,0,GOVERNMENT FLOOD MAPPING,L,L
GANSW706165436,153.53139102,-28.18569863,20 MARGARET STREET,TWEED HEADS,2485,NSW,2,0,GOVERNMENT FLOOD MAPPING,M,M
GANSW706155060,153.52965984,-28.18470638,87 THE QUARTERDECK,TWEED HEADS,2485,NSW,2,0,GOVERNMENT FLOOD MAPPING,M,L
GANSW706185828,153.53342115,-28.17825016,33 LEEWARD TERRACE,TWEED HEADS,2485,NSW,2,0,GOVERNMENT FLOOD MAPPING,L,L
GANSW706168232,153.52892457,-28.18563931,"UNIT 1, 88 COMPANION WAY",TWEED HEADS,2485,NSW,2,0,GOVERNMENT FLOOD MAPPING,M,L
GANSW706172983,153.52728067,-28.18329857,9 MERIDIAN WAY,TWEED HEADS,2485,NSW,2,0,GOVERNMENT FLOOD MAPPING,M,L
GANSW706164846,153.52775654,-28.18247360,19 COMPASS WAY,TWEED HEADS,2485,NSW,2,0,GOVERNMENT FLOOD MAPPING,M,L
GANSW712336536,153.52590165,-28.18525188,"UNIT 1, 101 DUCAT STREET",TWEED HEADS,2485,NSW,2,0,GOVERNMENT FLOOD MAPPING,H,H
GANSW706155058,153.52997413,-28.18454994,83 THE QUARTERDECK,TWEED HEADS,2485,NSW,2,0,GOVERNMENT FLOOD MAPPING,M,L
GANSW706145250,153.53331863,-28.18364842,"UNIT 2, 1 STANLEY STREET",TWEED HEADS,2485,NSW,2,0,GOVERNMENT FLOOD MAPPING,L,L
GANSW706155048,153.53202541,-28.18242784,53 THE QUARTERDECK,TWEED HEADS,2485,NSW,2,0,GOVERNMENT FLOOD MAPPING,M,L
GANSW718009348,153.53249228,-28.18473530,"UNIT 2, 7 MARGARET STREET",TWEED HEADS,2485,NSW,2,0,GOVERNMENT FLOOD MAPPING,L,L
GANSW706151883,153.53026100,-28.18612979,30 MARGARET STREET,TWEED HEADS,2485,NSW,2,0,GOVERNMENT FLOOD MAPPING,H,H
GANSW706145540,153.53019978,-28.18165247,13 THE MAINBRACE,TWEED HEADS,2485,NSW,2,0,GOVERNMENT FLOOD MAPPING,M,L
GANSW706135250,153.53061744,-28.18092754,10 THE BOWSPRIT,TWEED HEADS,2485,NSW,2,0,GOVERNMENT FLOOD MAPPING,M,L
GANSW706148818,153.53263311,-28.18075915,"UNIT 2, 37 THE QUARTERDECK",TWEED HEADS,2485,NSW,2,0,GOVERNMENT FLOOD MAPPING,L,L
GANSW706141490,153.52754564,-28.18301539,50 PARKES DRIVE,TWEED HEADS,2485,NSW,2,0,GOVERNMENT FLOOD MAPPING,M,L
GANSW706158364,153.52913755,-28.17793758,"UNIT 6, 6 DUCAT STREET",TWEED HEADS,2485,NSW,2,0,GOVERNMENT FLOOD MAPPING,M,M
GANSW706135008,153.53131691,-28.18465511,24 STANLEY STREET,TWEED HEADS,2485,NSW,2,0,GOVERNMENT FLOOD MAPPING,L,L
GANSW706141662,153.53088119,-28.17720834,9 MURRABA CRESCENT,TWEED HEADS,2485,NSW,2,0,GOVERNMENT FLOOD MAPPING,L,L
GANSW706165439,153.53116407,-28.18520621,"UNIT 3, 21 MARGARET STREET",TWEED HEADS,2485,NSW,2,0,GOVERNMENT FLOOD MAPPING,L,L
GANSW706162056,153.52859135,-28.18031330,7 COMPASS WAY,TWEED HEADS,2485,NSW,2,0,GOVERNMENT FLOOD MAPPING,M,L
GANSW706165437,153.53116407,-28.18520621,"UNIT 1, 21 MARGARET STREET",TWEED HEADS,2485,NSW,2,0,GOVERNMENT FLOOD MAPPING,L,L
GANSW706145581,153.52914866,-28.18199798,22 THE MAINBRACE,TWEED HEADS,2485,NSW,2,0,GOVERNMENT FLOOD MAPPING,M,L
GANSW712363152,153.53045653,-28.17757366,"UNIT 2, 13 MUGGA WAY",TWEED HEADS,2485,NSW,2,0,GOVERNMENT FLOOD MAPPING,L,L
GANSW706141484,153.52552094,-28.18257790,41 PARKES DRIVE,TWEED HEADS,2485,NSW,4,1,GOVERNMENT FLOOD MAPPING,M,L
GANSW706144802,153.53028563,-28.18434428,81A THE QUARTERDECK,TWEED HEADS,2485,NSW,2,1,GOVERNMENT FLOOD MAPPING,M,L
GANSW717484909,153.52997413,-28.18454994,83B THE QUARTERDECK,TWEED HEADS,2485,NSW,2,0,GOVERNMENT FLOOD MAPPING,M,L
GANSW706178995,153.52837802,-28.18613623,27 MERIDIAN WAY,TWEED HEADS,2485,NSW,2,0,GOVERNMENT FLOOD MAPPING,M,M
GANSW718071787,153.52670632,-28.18330557,7A MERIDIAN WAY,TWEED HEADS,2485,NSW,2,0,GOVERNMENT FLOOD MAPPING,M,L
GANSW706179266,153.53050231,-28.17906856,17 THE ANCHORAGE,TWEED HEADS,2485,NSW,2,0,GOVERNMENT FLOOD MAPPING,M,L
GANSW706164716,153.53200442,-28.18559319,59 KENNEDY DRIVE,TWEED HEADS,2485,NSW,2,0,GOVERNMENT FLOOD MAPPING,M,L
GANSW706162055,153.52840361,-28.18020822,6 COMPASS WAY,TWEED HEADS,2485,NSW,2,0,GOVERNMENT FLOOD MAPPING,M,L
GANSW706135248,153.53127726,-28.17917990,9 THE ANCHORAGE,TWEED HEADS,2485,NSW,2,0,GOVERNMENT FLOOD MAPPING,M,L
GANSW706182093,153.52905026,-28.17814012,8 DUCAT STREET,TWEED HEADS,2485,NSW,2,0,GOVERNMENT FLOOD MAPPING,M,M
GANSW718865423,153.53309409,-28.18451656,"UNIT 4, 1 MARGARET STREET",TWEED HEADS,2485,NSW,2,0,GOVERNMENT FLOOD MAPPING,L,L
GANSW706145538,153.53040261,-28.18168155,11 THE MAINBRACE,TWEED HEADS,2485,NSW,2,0,GOVERNMENT FLOOD MAPPING,M,L
GANSW706137852,153.52797471,-28.17995764,30 DUCAT STREET,TWEED HEADS,2485,NSW,2,0,GOVERNMENT FLOOD MAPPING,M,L
GANSW706144744,153.53228849,-28.17906792,14 THE QUARTERDECK,TWEED HEADS,2485,NSW,2,0,GOVERNMENT FLOOD MAPPING,L,L
GANSW706155533,153.53007279,-28.17635025,23 MURRABA CRESCENT,TWEED HEADS,2485,NSW,2,0,GOVERNMENT FLOOD MAPPING,L,L
GANSW706165429,153.53135068,-28.18514806,"UNIT 4, 19 MARGARET STREET",TWEED HEADS,2485,NSW,2,0,GOVERNMENT FLOOD MAPPING,L,L
GANSW712379573,153.53131691,-28.18465511,"DUPLEX 2, 24 STANLEY STREET",TWEED HEADS,2485,NSW,2,0,GOVERNMENT FLOOD MAPPING,L,L
GANSW706145227,153.52968993,-28.17795104,"UNIT 6, 4 MUGGA WAY",TWEED HEADS,2485,NSW,2,0,GOVERNMENT FLOOD MAPPING,M,L
GANSW712255946,153.53240564,-28.17744281,5 THE JIB,TWEED HEADS,2485,NSW,2,0,GOVERNMENT FLOOD MAPPING,L,L
GANSW706145251,153.53331863,-28.18364842,1 STANLEY STREET,TWEED HEADS,2485,NSW,2,0,GOVERNMENT FLOOD MAPPING,L,L
GANSW706134205,153.52762797,-28.18055207,38 DUCAT STREET,TWEED HEADS,2485,NSW,2,0,GOVERNMENT FLOOD MAPPING,M,M
GANSW715473443,153.53287559,-28.18459561,"UNIT 5, 3 MARGARET STREET",TWEED HEADS,2485,NSW,2,0,GOVERNMENT FLOOD MAPPING,L,L
GANSW712379574,153.53130545,-28.18464624,"DUPLEX 3, 24 STANLEY STREET",TWEED HEADS,2485,NSW,2,0,GOVERNMENT FLOOD MAPPING,L,L
GANSW716334676,153.53172024,-28.18570111,"UNIT 6, 16-18 MARGARET STREET",TWEED HEADS,2485,NSW,2,0,GOVERNMENT FLOOD MAPPING,M,L
GANSW707653242,153.53163511,-28.17833567,2 THE QUARTERDECK,TWEED HEADS,2485,NSW,2,0,GOVERNMENT FLOOD MAPPING,M,L
GANSW712280399,153.52948211,-28.18500751,"UNIT 1, 93 COMPANION WAY",TWEED HEADS,2485,NSW,2,0,GOVERNMENT FLOOD MAPPING,M,L
GANSW706164845,153.52784566,-28.18231603,18 COMPASS WAY,TWEED HEADS,2485,NSW,2,0,GOVERNMENT FLOOD MAPPING,M,L
GANSW706145533,153.53238533,-28.17709324,8 KENT STREET,TWEED HEADS,2485,NSW,2,0,GOVERNMENT FLOOD MAPPING,L,L
GANSW706165469,153.53393251,-28.18253730,"UNIT 5, 4 SECOND AVENUE",TWEED HEADS,2485,NSW,2,0,GOVERNMENT FLOOD MAPPING,L,L
GANSW718279576,153.53145919,-28.18457654,"HOUSE 2, 22 STANLEY STREET",TWEED HEADS,2485,NSW,2,0,GOVERNMENT FLOOD MAPPING,L,L
GANSW706155046,153.53205586,-28.18226909,51 THE QUARTERDECK,TWEED HEADS,2485,NSW,2,0,GOVERNMENT FLOOD MAPPING,L,L
GANSW706141594,153.53192109,-28.18494091,"UNIT 5, 13 MARGARET STREET",TWEED HEADS,2485,NSW,2,0,GOVERNMENT FLOOD MAPPING,L,L
GANSW706144795,153.53162564,-28.18355982,67 THE QUARTERDECK,TWEED HEADS,2485,NSW,2,0,GOVERNMENT FLOOD MAPPING,L,L
GANSW706145228,153.52968993,-28.17795104,4 MUGGA WAY,TWEED HEADS,2485,NSW,2,0,GOVERNMENT FLOOD MAPPING,M,L
GANSW706105817,153.53313560,-28.18194899,20 ALVA STREET,TWEED HEADS,2485,NSW,2,0,GOVERNMENT FLOOD MAPPING,L,L
GANSW718070746,153.53266957,-28.18111968,1A LEEWARD TERRACE,TWEED HEADS,2485,NSW,2,0,GOVERNMENT FLOOD MAPPING,L,L
GANSW712335405,153.53370417,-28.17902618,41 LEEWARD TERRACE,TWEED HEADS,2485,NSW,4,1,GOVERNMENT FLOOD MAPPING,L,L
GANSW712309351,153.53067391,-28.17818207,"UNIT 2, 14 MUGGA WAY",TWEED HEADS,2485,NSW,2,0,GOVERNMENT FLOOD MAPPING,M,L
GANSW706162048,153.52737100,-28.18188980,22 COMPASS WAY,TWEED HEADS,2485,NSW,2,0,GOVERNMENT FLOOD MAPPING,M,L
GANSW706147818,153.53067016,-28.17962074,14 THE ANCHORAGE,TWEED HEADS,2485,NSW,2,0,GOVERNMENT FLOOD MAPPING,M,L
GANSW712399955,153.52919348,-28.18490198,105 COMPANION WAY,TWEED HEADS,2485,NSW,4,0,GOVERNMENT FLOOD MAPPING,H,H
GANSW706145494,153.53373265,-28.18051300,20 LEEWARD TERRACE,TWEED HEADS,2485,NSW,2,0,GOVERNMENT FLOOD MAPPING,L,L
GANSW706141441,153.53024201,-28.18657368,77 KENNEDY DRIVE,TWEED HEADS,2485,NSW,2,0,GOVERNMENT FLOOD MAPPING,H,H
GANSW706165430,153.53135068,-28.18514806,"UNIT 5, 19 MARGARET STREET",TWEED HEADS,2485,NSW,2,0,GOVERNMENT FLOOD MAPPING,L,L
GANSW706162190,153.53341598,-28.18481444,2 MCDONALD STREET,TWEED HEADS,2485,NSW,2,0,GOVERNMENT FLOOD MAPPING,L,L
GANSW706185502,153.52908898,-28.18277277,16 NORMAN STREET,TWEED HEADS,2485,NSW,2,0,GOVERNMENT FLOOD MAPPING,M,L
GANSW706134983,153.53087851,-28.17820265,"UNIT 2, 16 MUGGA WAY",TWEED HEADS,2485,NSW,2,1,GOVERNMENT FLOOD MAPPING,M,L
GANSW706168234,153.52949302,-28.18479618,89 COMPANION WAY,TWEED HEADS,2485,NSW,2,0,GOVERNMENT FLOOD MAPPING,M,L
GANSW706141502,153.53406645,-28.17867865,38 LEEWARD TERRACE,TWEED HEADS,2485,NSW,2,0,GOVERNMENT FLOOD MAPPING,L,L
GANSW706185814,153.53376976,-28.18030892,22 LEEWARD TERRACE,TWEED HEADS,2485,NSW,2,0,GOVERNMENT FLOOD MAPPING,L,L
GANSW706148786,153.53227301,-28.17872259,10 THE QUARTERDECK,TWEED HEADS,2485,NSW,2,0,GOVERNMENT FLOOD MAPPING,L,L
GANSW706182091,153.52905026,-28.17814012,"UNIT 1, 8 DUCAT STREET",TWEED HEADS,2485,NSW,2,0,GOVERNMENT FLOOD MAPPING,M,M
GANSW715486684,153.52679935,-28.18304507,58 PARKES DRIVE,TWEED HEADS,2485,NSW,2,0,GOVERNMENT FLOOD MAPPING,M,L
GANSW706168236,153.52943662,-28.18519808,91 COMPANION WAY,TWEED HEADS,2485,NSW,2,0,GOVERNMENT FLOOD MAPPING,M,L
GANSW712326436,153.53067391,-28.17818207,"UNIT 6, 14 MUGGA WAY",TWEED HEADS,2485,NSW,2,0,GOVERNMENT FLOOD MAPPING,M,L
GANSW717519525,153.53021373,-28.18556131,"UNIT 2, 29 MARGARET STREET",TWEED HEADS,2485,NSW,2,0,GOVERNMENT FLOOD MAPPING,M,L
GANSW706145237,153.52957238,-28.17777872,"UNIT 2, 2 MUGGA WAY",TWEED HEADS,2485,NSW,2,0,GOVERNMENT FLOOD MAPPING,M,L
GANSW706172989,153.52970139,-28.17629191,15 MILES STREET,TWEED HEADS,2485,NSW,2,0,GOVERNMENT FLOOD MAPPING,L,L
GANSW706113120,153.53232612,-28.18295575,7 ALVA STREET,TWEED HEADS,2485,NSW,2,0,GOVERNMENT FLOOD MAPPING,L,L
GANSW706155535,153.53003081,-28.17615556,25 MURRABA CRESCENT,TWEED HEADS,2485,NSW,2,0,GOVERNMENT FLOOD MAPPING,L,L
GANSW706171821,153.52627132,-28.18373200,74 DUCAT STREET,TWEED HEADS,2485,NSW,2,0,GOVERNMENT FLOOD MAPPING,M,M
GANSW706154735,153.53385029,-28.18347099,69 CHARLES STREET,TWEED HEADS,2485,NSW,2,0,GOVERNMENT FLOOD MAPPING,L,L
GANSW706154740,153.53355722,-28.18366324,73 CHARLES STREET,TWEED HEADS,2485,NSW,2,0,GOVERNMENT FLOOD MAPPING,L,L
GANSW706145539,153.53025353,-28.18218695,12 THE MAINBRACE,TWEED HEADS,2485,NSW,2,0,GOVERNMENT FLOOD MAPPING,M,L
GANSW706179000,153.52759721,-28.18625277,30 MERIDIAN WAY,TWEED HEADS,2485,NSW,2,0,GOVERNMENT FLOOD MAPPING,M,L
GANSW706141527,153.52977655,-28.18158927,17 THE MAINBRACE,TWEED HEADS,2485,NSW,2,0,GOVERNMENT FLOOD MAPPING,M,L
GANSW706151894,153.53268108,-28.18465905,"UNIT 3, 5 MARGARET STREET",TWEED HEADS,2485,NSW,2,0,GOVERNMENT FLOOD MAPPING,L,L
GANSW706145226,153.52968993,-28.17795104,"UNIT 5, 4 MUGGA WAY",TWEED HEADS,2485,NSW,2,0,GOVERNMENT FLOOD MAPPING,M,L
GANSW706105802,153.53304029,-28.18257332,12 ALVA STREET,TWEED HEADS,2485,NSW,2,0,GOVERNMENT FLOOD MAPPING,L,L
GANSW706113118,153.53303456,-28.18303847,"UNIT 2, 6 ALVA STREET",TWEED HEADS,2485,NSW,2,0,GOVERNMENT FLOOD MAPPING,L,L
GANSW706145273,153.53070382,-28.17720236,11 MURRABA CRESCENT,TWEED HEADS,2485,NSW,2,0,GOVERNMENT FLOOD MAPPING,L,L
GANSW706105809,153.53336071,-28.18230641,"UNIT 2, 16 ALVA STREET",TWEED HEADS,2485,NSW,2,0,GOVERNMENT FLOOD MAPPING,L,L
GANSW718865420,153.53309409,-28.18451656,"UNIT 1, 1 MARGARET STREET",TWEED HEADS,2485,NSW,2,0,GOVERNMENT FLOOD MAPPING,L,L
GANSW706157966,153.52822810,-28.18437417,72 COMPANION WAY,TWEED HEADS,2485,NSW,2,0,GOVERNMENT FLOOD MAPPING,M,L
GANSW712295708,153.53230133,-28.18480372,"UNIT 2, 9 MARGARET STREET",TWEED HEADS,2485,NSW,2,0,GOVERNMENT FLOOD MAPPING,L,L
GANSW715473442,153.53172024,-28.18570111,"UNIT 5, 16 MARGARET STREET",TWEED HEADS,2485,NSW,2,0,GOVERNMENT FLOOD MAPPING,M,L
GANSW706135324,153.52948581,-28.18151512,19 THE MAINBRACE,TWEED HEADS,2485,NSW,2,0,GOVERNMENT FLOOD MAPPING,M,L
GANSW706179274,153.52968045,-28.17932691,24 THE ANCHORAGE,TWEED HEADS,2485,NSW,2,0,GOVERNMENT FLOOD MAPPING,M,L
GANSW716861200,153.53319790,-28.18021781,"UNIT 1, 13 LEEWARD TERRACE",TWEED HEADS,2485,NSW,2,0,GOVERNMENT FLOOD MAPPING,L,L
GANSW706113113,153.53318261,-28.18321873,"UNIT 1, 4 ALVA STREET",TWEED HEADS,2485,NSW,2,0,GOVERNMENT FLOOD MAPPING,L,L
GANSW706155052,153.53194385,-28.18274889,57 THE QUARTERDECK,TWEED HEADS,2485,NSW,2,0,GOVERNMENT FLOOD MAPPING,M,L
GANSW706179268,153.53030783,-28.17903983,19 THE ANCHORAGE,TWEED HEADS,2485,NSW,2,0,GOVERNMENT FLOOD MAPPING,M,L
GANSW706158008,153.52754441,-28.18529210,20 MERIDIAN WAY,TWEED HEADS,2485,NSW,2,0,GOVERNMENT FLOOD MAPPING,M,L
GANSW718009353,153.53249228,-28.18473530,"UNIT 7, 7 MARGARET STREET",TWEED HEADS,2485,NSW,2,0,GOVERNMENT FLOOD MAPPING,L,L
GANSW706135259,153.52980708,-28.18022898,19 THE BOWSPRIT,TWEED HEADS,2485,NSW,2,1,GOVERNMENT FLOOD MAPPING,M,L
GANSW706172982,153.52696418,-28.18339979,8 MERIDIAN WAY,TWEED HEADS,2485,NSW,2,0,GOVERNMENT FLOOD MAPPING,M,L
GANSW712336526,153.52671082,-28.18606872,"SHOP 4, 100 DUCAT STREET",TWEED HEADS,2485,NSW,2,0,GOVERNMENT FLOOD MAPPING,M,L
GANSW706145588,153.53066142,-28.18224582,8 THE MAINBRACE,TWEED HEADS,2485,NSW,2,0,GOVERNMENT FLOOD MAPPING,M,L
GANSW706144747,153.53298750,-28.17881943,17 THE QUARTERDECK,TWEED HEADS,2485,NSW,2,0,GOVERNMENT FLOOD MAPPING,L,L
GANSW706135021,153.53081007,-28.18425559,29 STANLEY STREET,TWEED HEADS,2485,NSW,2,0,GOVERNMENT FLOOD MAPPING,L,L
GANSW706137849,153.52807721,-28.17981426,28 DUCAT STREET,TWEED HEADS,2485,NSW,2,0,GOVERNMENT FLOOD MAPPING,M,L
GANSW706158007,153.52674374,-28.18435690,2 MERIDIAN WAY,TWEED HEADS,2485,NSW,2,0,GOVERNMENT FLOOD MAPPING,M,M
GANSW715479627,153.53045653,-28.17757366,"UNIT 1, 13 MUGGA WAY",TWEED HEADS,2485,NSW,2,0,GOVERNMENT FLOOD MAPPING,L,L
GANSW706135269,153.53082017,-28.18095670,8 THE BOWSPRIT,TWEED HEADS,2485,NSW,2,0,GOVERNMENT FLOOD MAPPING,M,L
GANSW706164824,153.52892835,-28.18504779,"UNIT 1, 96 COMPANION WAY",TWEED HEADS,2485,NSW,2,0,GOVERNMENT FLOOD MAPPING,M,L
GANSW718691108,153.52979299,-28.17516877,35 MURRABA CRESCENT,TWEED HEADS,2485,NSW,2,0,GOVERNMENT FLOOD MAPPING,L,L
GANSW706185827,153.53395555,-28.17928978,32 LEEWARD TERRACE,TWEED HEADS,2485,NSW,2,0,GOVERNMENT FLOOD MAPPING,L,L
GANSW706151882,153.53287559,-28.18459561,3 MARGARET STREET,TWEED HEADS,2485,NSW,2,0,GOVERNMENT FLOOD MAPPING,L,L
GANSW712363205,153.52731657,-28.18421510,"UNIT 2, 14 MERIDIAN WAY",TWEED HEADS,2485,NSW,2,0,GOVERNMENT FLOOD MAPPING,M,L
GANSW716873466,153.52584572,-28.18496775,97 DUCAT STREET,TWEED HEADS,2485,NSW,2,1,GOVERNMENT FLOOD MAPPING,H,H
GANSW706135255,153.53031412,-28.18035367,15 THE BOWSPRIT,TWEED HEADS,2485,NSW,2,0,GOVERNMENT FLOOD MAPPING,M,L
GANSW712308852,153.53202611,-28.18061372,26 THE QUARTERDECK,TWEED HEADS,2485,NSW,2,0,GOVERNMENT FLOOD MAPPING,M,L
GANSW718009350,153.53249228,-28.18473530,"UNIT 4, 7 MARGARET STREET",TWEED HEADS,2485,NSW,2,0,GOVERNMENT FLOOD MAPPING,L,L
GANSW706158361,153.52913755,-28.17793758,"UNIT 3, 6 DUCAT STREET",TWEED HEADS,2485,NSW,2,0,GOVERNMENT FLOOD MAPPING,M,M
GANSW706161579,153.52913755,-28.17793758,"UNIT 1, 6 DUCAT STREET",TWEED HEADS,2485,NSW,2,0,GOVERNMENT FLOOD MAPPING,M,M
GANSW706165428,153.53135068,-28.18514806,"UNIT 3, 19 MARGARET STREET",TWEED HEADS,2485,NSW,2,0,GOVERNMENT FLOOD MAPPING,L,L
GANSW706185818,153.53384396,-28.17990186,26 LEEWARD TERRACE,TWEED HEADS,2485,NSW,2,0,GOVERNMENT FLOOD MAPPING,L,L
GANSW715473439,153.53287559,-28.18459561,"UNIT 2, 3 MARGARET STREET",TWEED HEADS,2485,NSW,2,0,GOVERNMENT FLOOD MAPPING,L,L
GANSW706179009,153.52700322,-28.18566140,35 MERIDIAN WAY,TWEED HEADS,2485,NSW,2,0,GOVERNMENT FLOOD MAPPING,M,L
GANSW706151895,153.53268108,-28.18465905,"UNIT 4, 5 MARGARET STREET",TWEED HEADS,2485,NSW,2,0,GOVERNMENT FLOOD MAPPING,L,L
GANSW706135236,153.53319790,-28.18021781,13 LEEWARD TERRACE,TWEED HEADS,2485,NSW,2,0,GOVERNMENT FLOOD MAPPING,L,L
GANSW712336524,153.52671082,-28.18606872,"SHOP 2, 100 DUCAT STREET",TWEED HEADS,2485,NSW,2,0,GOVERNMENT FLOOD MAPPING,M,L
GANSW715501044,153.53130545,-28.18464624,"UNIT 1, 24 STANLEY STREET",TWEED HEADS,2485,NSW,2,0,GOVERNMENT FLOOD MAPPING,L,L
GANSW712314802,153.52948211,-28.18500751,"UNIT 2, 93 COMPANION WAY",TWEED HEADS,2485,NSW,2,0,GOVERNMENT FLOOD MAPPING,M,L
GANSW706185497,153.52975626,-28.18287831,10 NORMAN STREET,TWEED HEADS,2485,NSW,2,0,GOVERNMENT FLOOD MAPPING,M,M
GANSW718009349,153.53249228,-28.18473530,"UNIT 3, 7 MARGARET STREET",TWEED HEADS,2485,NSW,2,0,GOVERNMENT FLOOD MAPPING,L,L
GANSW706105799,153.53237687,-28.18340111,1 ALVA STREET,TWEED HEADS,2485,NSW,2,0,GOVERNMENT FLOOD MAPPING,L,L
GANSW706178996,153.52855767,-28.18628146,28 MERIDIAN WAY,TWEED HEADS,2485,NSW,2,0,GOVERNMENT FLOOD MAPPING,M,L
GANSW706171841,153.52578870,-28.18466827,93 DUCAT STREET,TWEED HEADS,2485,NSW,2,0,GOVERNMENT FLOOD MAPPING,M,L
GANSW706179007,153.52704639,-28.18582031,"UNIT 2, 34 MERIDIAN WAY",TWEED HEADS,2485,NSW,2,0,GOVERNMENT FLOOD MAPPING,M,L
GANSW706145269,153.53005991,-28.17805451,"UNIT 4, 8 MUGGA WAY",TWEED HEADS,2485,NSW,2,0,GOVERNMENT FLOOD MAPPING,M,L
GANSW706145587,153.53080781,-28.18173965,7 THE MAINBRACE,TWEED HEADS,2485,NSW,2,0,GOVERNMENT FLOOD MAPPING,M,L
GANSW706157965,153.52821342,-28.18413152,70 COMPANION WAY,TWEED HEADS,2485,NSW,2,0,GOVERNMENT FLOOD MAPPING,M,L
GANSW706161569,153.52649111,-28.18308277,66 DUCAT STREET,TWEED HEADS,2485,NSW,2,0,GOVERNMENT FLOOD MAPPING,H,H
GANSW706154731,153.53420992,-28.18294384,65 CHARLES STREET,TWEED HEADS,2485,NSW,2,0,GOVERNMENT FLOOD MAPPING,L,L
GANSW706407313,153.52666459,-28.18348421,7 MERIDIAN WAY,TWEED HEADS,2485,NSW,2,0,GOVERNMENT FLOOD MAPPING,M,L
GANSW706164833,153.52983088,-28.18499242,"UNIT 1, 99 COMPANION WAY",TWEED HEADS,2485,NSW,2,0,GOVERNMENT FLOOD MAPPING,M,L
GANSW712322488,153.53019121,-28.17538562,"UNIT 2, 28 MURRABA CRESCENT",TWEED HEADS,2485,NSW,2,0,GOVERNMENT FLOOD MAPPING,L,L
GANSW718841794,153.52584572,-28.18496775,97-99 DUCAT STREET,TWEED HEADS,2485,NSW,2,0,GOVERNMENT FLOOD MAPPING,H,H
GANSW712399922,153.53326958,-28.18285375,"UNIT 2, 3A SECOND AVENUE",TWEED HEADS,2485,NSW,2,0,GOVERNMENT FLOOD MAPPING,L,L
GANSW707666747,153.53087851,-28.17820265,16 MUGGA WAY,TWEED HEADS,2485,NSW,2,1,GOVERNMENT FLOOD MAPPING,M,L
GANSW706141442,153.53009564,-28.18659071,79 KENNEDY DRIVE,TWEED HEADS,2485,NSW,2,0,GOVERNMENT FLOOD MAPPING,H,H
GANSW715486682,153.52716684,-28.18311894,54 PARKES DRIVE,TWEED HEADS,2485,NSW,2,0,GOVERNMENT FLOOD MAPPING,M,L
GANSW712300878,153.53173116,-28.18500572,"UNIT 7, 15 MARGARET STREET",TWEED HEADS,2485,NSW,2,0,GOVERNMENT FLOOD MAPPING,L,L
GANSW716896924,153.53266957,-28.18111968,"UNIT 1, 1 LEEWARD TERRACE",TWEED HEADS,2485,NSW,2,0,GOVERNMENT FLOOD MAPPING,L,L
GANSW706158363,153.52913755,-28.17793758,"UNIT 5, 6 DUCAT STREET",TWEED HEADS,2485,NSW,2,0,GOVERNMENT FLOOD MAPPING,M,M
GANSW706182210,153.53328443,-28.18509257,45 KENNEDY DRIVE,TWEED HEADS,2485,NSW,2,0,GOVERNMENT FLOOD MAPPING,L,L
GANSW706165444,153.53116407,-28.18520621,"UNIT 8, 21 MARGARET STREET",TWEED HEADS,2485,NSW,2,0,GOVERNMENT FLOOD MAPPING,L,L
GANSW706135233,153.53352813,-28.18169952,10 LEEWARD TERRACE,TWEED HEADS,2485,NSW,2,0,GOVERNMENT FLOOD MAPPING,L,L
GANSW706135246,153.53146362,-28.17920780,7 THE ANCHORAGE,TWEED HEADS,2485,NSW,2,0,GOVERNMENT FLOOD MAPPING,M,L
GANSW718865426,153.53309409,-28.18451656,"UNIT 7, 1 MARGARET STREET",TWEED HEADS,2485,NSW,2,0,GOVERNMENT FLOOD MAPPING,L,L
GANSW706165435,153.53135068,-28.18514806,19 MARGARET STREET,TWEED HEADS,2485,NSW,2,0,GOVERNMENT FLOOD MAPPING,L,L
GANSW706145266,153.53005991,-28.17805451,"UNIT 1, 8 MUGGA WAY",TWEED HEADS,2485,NSW,2,0,GOVERNMENT FLOOD MAPPING,M,L
GANSW712312939,153.53288174,-28.18411823,"UNIT 2, 4 STANLEY STREET",TWEED HEADS,2485,NSW,2,0,GOVERNMENT FLOOD MAPPING,L,L
GANSW716756656,153.53319790,-28.18021781,"UNIT 2, 13 LEEWARD TERRACE",TWEED HEADS,2485,NSW,2,0,GOVERNMENT FLOOD MAPPING,L,L
GANSW717199698,153.53446088,-28.18445426,"UNIT 3, 15 SECOND AVENUE",TWEED HEADS,2485,NSW,2,0,GOVERNMENT FLOOD MAPPING,L,L
GANSW712336527,153.52671082,-28.18606872,"SHOP 5, 100 DUCAT STREET",TWEED HEADS,2485,NSW,2,0,GOVERNMENT FLOOD MAPPING,M,L
GANSW706148811,153.53160113,-28.18150453,32 THE QUARTERDECK,TWEED HEADS,2485,NSW,2,0,GOVERNMENT FLOOD MAPPING,M,L
GANSW707604654,153.53026909,-28.17811099,10 MUGGA WAY,TWEED HEADS,2485,NSW,2,0,GOVERNMENT FLOOD MAPPING,M,L
GANSW712312915,153.53315387,-28.18409094,"UNIT 1, 2 STANLEY STREET",TWEED HEADS,2485,NSW,2,0,GOVERNMENT FLOOD MAPPING,L,L
GANSW706155484,153.53002228,-28.17739254,7 MUGGA WAY,TWEED HEADS,2485,NSW,2,0,GOVERNMENT FLOOD MAPPING,L,L
GANSW706179275,153.52971053,-28.17911150,25 THE ANCHORAGE,TWEED HEADS,2485,NSW,2,0,GOVERNMENT FLOOD MAPPING,M,L
GANSW706162192,153.53349609,-28.18424792,6 MCDONALD STREET,TWEED HEADS,2485,NSW,2,0,GOVERNMENT FLOOD MAPPING,L,L
GANSW706141625,153.53026909,-28.17811099,"UNIT 2, 10 MUGGA WAY",TWEED HEADS,2485,NSW,2,0,GOVERNMENT FLOOD MAPPING,M,L
GANSW706185500,153.52932433,-28.18282571,14 NORMAN STREET,TWEED HEADS,2485,NSW,2,0,GOVERNMENT FLOOD MAPPING,M,L
GANSW706182085,153.52627881,-28.18390733,76 DUCAT STREET,TWEED HEADS,2485,NSW,2,0,GOVERNMENT FLOOD MAPPING,M,M
GANSW712297258,153.52627881,-28.18390733,"UNIT 2, 76 DUCAT STREET",TWEED HEADS,2485,NSW,2,0,GOVERNMENT FLOOD MAPPING,M,M
GANSW706141514,153.53297811,-28.18164858,6 LEEWARD TERRACE,TWEED HEADS,2485,NSW,2,0,GOVERNMENT FLOOD MAPPING,L,L
GANSW706158009,153.52759423,-28.18545324,21 MERIDIAN WAY,TWEED HEADS,2485,NSW,2,0,GOVERNMENT FLOOD MAPPING,M,L
GANSW706158365,153.52677447,-28.18242208,60 DUCAT STREET,TWEED HEADS,2485,NSW,2,0,GOVERNMENT FLOOD MAPPING,M,L
GANSW706141598,153.53154212,-28.18507799,"UNIT 1, 17 MARGARET STREET",TWEED HEADS,2485,NSW,2,0,GOVERNMENT FLOOD MAPPING,L,L
GANSW706144800,153.53064486,-28.18416047,79 THE QUARTERDECK,TWEED HEADS,2485,NSW,2,0,GOVERNMENT FLOOD MAPPING,L,L
GANSW706134742,153.52875512,-28.18641643,"UNIT 2, 29 MERIDIAN WAY",TWEED HEADS,2485,NSW,2,0,GOVERNMENT FLOOD MAPPING,M,L
GANSW712322476,153.53128901,-28.17678971,30 MURRABA CRESCENT,TWEED HEADS,2485,NSW,4,1,GOVERNMENT FLOOD MAPPING,L,L
GANSW712343505,153.53108219,-28.17823955,"UNIT 3, 18 MUGGA WAY",TWEED HEADS,2485,NSW,2,0,GOVERNMENT FLOOD MAPPING,M,L
GANSW706145249,153.52968993,-28.17795104,"UNIT 1, 4 MUGGA WAY",TWEED HEADS,2485,NSW,2,0,GOVERNMENT FLOOD MAPPING,M,L
GANSW706162051,153.52758837,-28.18137748,25 COMPASS WAY,TWEED HEADS,2485,NSW,2,0,GOVERNMENT FLOOD MAPPING,M,L
GANSW706135262,153.52969880,-28.18039976,21 THE BOWSPRIT,TWEED HEADS,2485,NSW,2,0,GOVERNMENT FLOOD MAPPING,M,L
GANSW716470311,153.53172024,-28.18570111,"UNIT 6, 16 MARGARET STREET",TWEED HEADS,2485,NSW,2,0,GOVERNMENT FLOOD MAPPING,M,L
GANSW706171845,153.52665839,-28.18583742,98 DUCAT STREET,TWEED HEADS,2485,NSW,2,0,GOVERNMENT FLOOD MAPPING,M,L
GANSW706158362,153.52913755,-28.17793758,"UNIT 4, 6 DUCAT STREET",TWEED HEADS,2485,NSW,2,0,GOVERNMENT FLOOD MAPPING,M,M
GANSW706113119,153.53303456,-28.18303847,6 ALVA STREET,TWEED HEADS,2485,NSW,2,0,GOVERNMENT FLOOD MAPPING,L,L
GANSW706155043,153.53208601,-28.18211281,49 THE QUARTERDECK,TWEED HEADS,2485,NSW,2,0,GOVERNMENT FLOOD MAPPING,L,L
GANSW713133889,153.53067391,-28.17818207,"UNIT 1, 14 MUGGA WAY",TWEED HEADS,2485,NSW,2,0,GOVERNMENT FLOOD MAPPING,M,L
GANSW706179010,153.52696982,-28.18550212,36 MERIDIAN WAY,TWEED HEADS,2485,NSW,2,0,GOVERNMENT FLOOD MAPPING,M,L
GANSW706179001,153.52734303,-28.18620268,31 MERIDIAN WAY,TWEED HEADS,2485,NSW,2,0,GOVERNMENT FLOOD MAPPING,M,L
GANSW706145239,153.52957238,-28.17777872,"UNIT 4, 2 MUGGA WAY",TWEED HEADS,2485,NSW,2,0,GOVERNMENT FLOOD MAPPING,M,L
GANSW706135016,153.53096212,-28.18476473,"UNIT 5, 28 STANLEY STREET",TWEED HEADS,2485,NSW,2,0,GOVERNMENT FLOOD MAPPING,L,L
GANSW706105808,153.53336071,-28.18230641,"UNIT 1, 16 ALVA STREET",TWEED HEADS,2485,NSW,2,0,GOVERNMENT FLOOD MAPPING,L,L
GANSW716897428,153.53172024,-28.18570111,"UNIT 5, 18 MARGARET STREET",TWEED HEADS,2485,NSW,2,0,GOVERNMENT FLOOD MAPPING,M,L
GANSW706145230,153.52986288,-28.17801501,"UNIT 1, 6 MUGGA WAY",TWEED HEADS,2485,NSW,2,0,GOVERNMENT FLOOD MAPPING,M,L
GANSW717377497,153.53360755,-28.17722912,"UNIT 2A, 50 LEEWARD TERRACE",TWEED HEADS,2485,NSW,2,0,GOVERNMENT FLOOD MAPPING,L,L
GANSW706144743,153.53296348,-28.17846525,13 THE QUARTERDECK,TWEED HEADS,2485,NSW,2,0,GOVERNMENT FLOOD MAPPING,L,L
GANSW706164837,153.52841748,-28.18094929,10 COMPASS WAY,TWEED HEADS,2485,NSW,2,0,GOVERNMENT FLOOD MAPPING,M,L
GANSW717559562,153.53108739,-28.17722223,"UNIT 1, 7 MURRABA CRESCENT",TWEED HEADS,2485,NSW,2,0,GOVERNMENT FLOOD MAPPING,L,L
GANSW715966670,153.53172024,-28.18570111,"UNIT 5, 16-18 MARGARET STREET",TWEED HEADS,2485,NSW,2,0,GOVERNMENT FLOOD MAPPING,M,L
GANSW712322474,153.53003081,-28.17615556,"UNIT 1, 25 MURRABA CRESCENT",TWEED HEADS,2485,NSW,2,0,GOVERNMENT FLOOD MAPPING,L,L
GANSW706113115,153.53318261,-28.18321873,4 ALVA STREET,TWEED HEADS,2485,NSW,2,0,GOVERNMENT FLOOD MAPPING,L,L
GANSW706145515,153.53402945,-28.17888341,"UNIT 1, 36 LEEWARD TERRACE",TWEED HEADS,2485,NSW,2,0,GOVERNMENT FLOOD MAPPING,L,L
GANSW706141512,153.53360755,-28.17722912,"UNIT 2, 50 LEEWARD TERRACE",TWEED HEADS,2485,NSW,2,0,GOVERNMENT FLOOD MAPPING,L,L
GANSW706135327,153.52926601,-28.18150799,21 THE MAINBRACE,TWEED HEADS,2485,NSW,2,0,GOVERNMENT FLOOD MAPPING,M,L
GANSW706145253,153.53222486,-28.18373329,11 STANLEY STREET,TWEED HEADS,2485,NSW,2,0,GOVERNMENT FLOOD MAPPING,L,L
GANSW706172984,153.52945433,-28.17583228,1 MILES STREET,TWEED HEADS,2485,NSW,4,1,GOVERNMENT FLOOD MAPPING,L,L
GANSW706145229,153.52989923,-28.17729442,5 MUGGA WAY,TWEED HEADS,2485,NSW,2,0,GOVERNMENT FLOOD MAPPING,L,L
GANSW717199693,153.53437563,-28.18433098,"UNIT 1, 13 SECOND AVENUE",TWEED HEADS,2485,NSW,2,0,GOVERNMENT FLOOD MAPPING,L,L
GANSW706145271,153.53182867,-28.17691492,1 MURRABA CRESCENT,TWEED HEADS,2485,NSW,2,0,GOVERNMENT FLOOD MAPPING,L,L
GANSW706178999,153.52671265,-28.18419944,3 MERIDIAN WAY,TWEED HEADS,2485,NSW,2,0,GOVERNMENT FLOOD MAPPING,M,L
GANSW706175107,153.52878071,-28.18467605,"UNIT 1, 98 COMPANION WAY",TWEED HEADS,2485,NSW,2,0,GOVERNMENT FLOOD MAPPING,M,L
GANSW706172994,153.52967661,-28.17676189,21 MILES STREET,TWEED HEADS,2485,NSW,2,0,GOVERNMENT FLOOD MAPPING,L,L
GANSW706155044,153.53217867,-28.17790779,5 THE QUARTERDECK,TWEED HEADS,2485,NSW,2,0,GOVERNMENT FLOOD MAPPING,L,L
GANSW706145562,153.53299536,-28.17723687,10 THE JIB,TWEED HEADS,2485,NSW,2,0,GOVERNMENT FLOOD MAPPING,L,L
GANSW707604865,153.53219727,-28.17717903,6 KENT STREET,TWEED HEADS,2485,NSW,2,0,GOVERNMENT FLOOD MAPPING,L,L
GANSW706171837,153.52647402,-28.18490817,86 DUCAT STREET,TWEED HEADS,2485,NSW,2,0,GOVERNMENT FLOOD MAPPING,M,M
GANSW706179259,153.53108517,-28.17967892,10 THE ANCHORAGE,TWEED HEADS,2485,NSW,2,0,GOVERNMENT FLOOD MAPPING,M,L
GANSW706185819,153.53344491,-28.17884060,27 LEEWARD TERRACE,TWEED HEADS,2485,NSW,2,0,GOVERNMENT FLOOD MAPPING,L,L
GANSW706134982,153.53087851,-28.17820265,"UNIT 1, 16 MUGGA WAY",TWEED HEADS,2485,NSW,2,1,GOVERNMENT FLOOD MAPPING,M,L
GANSW712255918,153.53205851,-28.18342442,61A THE QUARTERDECK,TWEED HEADS,2485,NSW,2,0,GOVERNMENT FLOOD MAPPING,L,L
GANSW706145270,153.53014265,-28.17748954,9 MUGGA WAY,TWEED HEADS,2485,NSW,2,0,GOVERNMENT FLOOD MAPPING,L,L
GANSW707620903,153.53005991,-28.17805451,8 MUGGA WAY,TWEED HEADS,2485,NSW,2,0,GOVERNMENT FLOOD MAPPING,M,L
GANSW706141518,153.53327372,-28.18170502,8 LEEWARD TERRACE,TWEED HEADS,2485,NSW,2,0,GOVERNMENT FLOOD MAPPING,L,L
GANSW716897429,153.53172024,-28.18570111,"UNIT 6, 18 MARGARET STREET",TWEED HEADS,2485,NSW,2,0,GOVERNMENT FLOOD MAPPING,M,L
GANSW706145569,153.53306075,-28.17744924,8 THE JIB,TWEED HEADS,2485,NSW,2,0,GOVERNMENT FLOOD MAPPING,L,L
GANSW712300882,153.53173116,-28.18500572,"UNIT 4, 15 MARGARET STREET",TWEED HEADS,2485,NSW,2,0,GOVERNMENT FLOOD MAPPING,L,L
GANSW706165314,153.53129696,-28.18370002,71 THE QUARTERDECK,TWEED HEADS,2485,NSW,2,0,GOVERNMENT FLOOD MAPPING,L,L
GANSW706141596,153.53192109,-28.18494091,13 MARGARET STREET,TWEED HEADS,2485,NSW,2,0,GOVERNMENT FLOOD MAPPING,L,L
GANSW706155532,153.53047495,-28.17585843,22 MURRABA CRESCENT,TWEED HEADS,2485,NSW,2,0,GOVERNMENT FLOOD MAPPING,L,L
GANSW706145261,153.53159928,-28.18395953,19 STANLEY STREET,TWEED HEADS,2485,NSW,2,0,GOVERNMENT FLOOD MAPPING,L,L
GANSW706137813,153.52896032,-28.17831045,"UNIT 1, 10 DUCAT STREET",TWEED HEADS,2485,NSW,2,0,GOVERNMENT FLOOD MAPPING,M,M
GANSW706145564,153.53276801,-28.17719482,12 THE JIB,TWEED HEADS,2485,NSW,2,0,GOVERNMENT FLOOD MAPPING,L,L
GANSW706164840,153.52819341,-28.18148635,13 COMPASS WAY,TWEED HEADS,2485,NSW,2,0,GOVERNMENT FLOOD MAPPING,M,L
GANSW706141587,153.53309409,-28.18451656,1 MARGARET STREET,TWEED HEADS,2485,NSW,2,0,GOVERNMENT FLOOD MAPPING,L,L
GANSW706141508,153.53384619,-28.17767273,46 LEEWARD TERRACE,TWEED HEADS,2485,NSW,2,0,GOVERNMENT FLOOD MAPPING,L,L
GANSW706145258,153.53194144,-28.18441646,16 STANLEY STREET,TWEED HEADS,2485,NSW,2,0,GOVERNMENT FLOOD MAPPING,L,L
GANSW706105814,153.53337970,-28.18205008,18 ALVA STREET,TWEED HEADS,2485,NSW,2,0,GOVERNMENT FLOOD MAPPING,L,L
GANSW706141501,153.53327594,-28.17782596,37 LEEWARD TERRACE,TWEED HEADS,2485,NSW,2,0,GOVERNMENT FLOOD MAPPING,L,L
GANSW712280395,153.52949302,-28.18479618,"UNIT 1, 89 COMPANION WAY",TWEED HEADS,2485,NSW,2,0,GOVERNMENT FLOOD MAPPING,M,L
GANSW706135244,153.53164672,-28.17923355,5 THE ANCHORAGE,TWEED HEADS,2485,NSW,2,0,GOVERNMENT FLOOD MAPPING,M,L
GANSW706145243,153.53128528,-28.17826817,"UNIT 4, 20 MUGGA WAY",TWEED HEADS,2485,NSW,2,0,GOVERNMENT FLOOD MAPPING,M,L
GANSW706179002,153.52717551,-28.18612965,32 MERIDIAN WAY,TWEED HEADS,2485,NSW,2,0,GOVERNMENT FLOOD MAPPING,M,L
GANSW706185816,153.53380676,-28.18010567,24 LEEWARD TERRACE,TWEED HEADS,2485,NSW,2,0,GOVERNMENT FLOOD MAPPING,L,L
GANSW706145242,153.53128528,-28.17826817,"UNIT 3, 20 MUGGA WAY",TWEED HEADS,2485,NSW,2,0,GOVERNMENT FLOOD MAPPING,M,L
GANSW717777189,153.53172024,-28.18570111,"UNIT 4, 16-18 MARGARET STREET",TWEED HEADS,2485,NSW,2,0,GOVERNMENT FLOOD MAPPING,M,L
GANSW716406492,153.53266382,-28.18093345,"UNIT 2, 1 LEEWARD TERRACE",TWEED HEADS,2485,NSW,2,0,GOVERNMENT FLOOD MAPPING,L,L
GANSW706185825,153.53391832,-28.17949327,30 LEEWARD TERRACE,TWEED HEADS,2485,NSW,2,0,GOVERNMENT FLOOD MAPPING,L,L
GANSW706172979,153.52683986,-28.18485120,40 MERIDIAN WAY,TWEED HEADS,2485,NSW,2,0,GOVERNMENT FLOOD MAPPING,M,M
GANSW706135252,153.53041797,-28.18089884,12 THE BOWSPRIT,TWEED HEADS,2485,NSW,2,0,GOVERNMENT FLOOD MAPPING,M,L
GANSW706144748,153.53211248,-28.17983927,18 THE QUARTERDECK,TWEED HEADS,2485,NSW,2,0,GOVERNMENT FLOOD MAPPING,M,L
GANSW706148110,153.52936785,-28.17751219,"UNIT 3, 2 DUCAT STREET",TWEED HEADS,2485,NSW,2,0,GOVERNMENT FLOOD MAPPING,M,M
GANSW706165441,153.53116407,-28.18520621,"UNIT 5, 21 MARGARET STREET",TWEED HEADS,2485,NSW,2,0,GOVERNMENT FLOOD MAPPING,L,L
GANSW706155531,153.53006497,-28.17650758,21 MURRABA CRESCENT,TWEED HEADS,2485,NSW,2,0,GOVERNMENT FLOOD MAPPING,L,L
GANSW706135013,153.53096212,-28.18476473,"UNIT 2, 28 STANLEY STREET",TWEED HEADS,2485,NSW,2,0,GOVERNMENT FLOOD MAPPING,L,L
GANSW706144794,153.53182971,-28.18351683,65 THE QUARTERDECK,TWEED HEADS,2485,NSW,2,0,GOVERNMENT FLOOD MAPPING,L,L
GANSW706172996,153.52945433,-28.17583228,3 MILES STREET,TWEED HEADS,2485,NSW,4,1,GOVERNMENT FLOOD MAPPING,L,L
GANSW706141628,153.53026909,-28.17811099,"UNIT 5, 10 MUGGA WAY",TWEED HEADS,2485,NSW,2,0,GOVERNMENT FLOOD MAPPING,M,L
GANSW706144483,153.53010299,-28.18494891,"UNIT 2, 101 COMPANION WAY",TWEED HEADS,2485,NSW,2,0,GOVERNMENT FLOOD MAPPING,M,L
GANSW706151886,153.52983398,-28.18570732,"UNIT 1, 33 MARGARET STREET",TWEED HEADS,2485,NSW,2,0,GOVERNMENT FLOOD MAPPING,H,H
GANSW706145584,153.53110185,-28.18227374,4 THE MAINBRACE,TWEED HEADS,2485,NSW,2,1,GOVERNMENT FLOOD MAPPING,M,M
GANSW706158002,153.52735075,-28.18438819,15 MERIDIAN WAY,TWEED HEADS,2485,NSW,2,0,GOVERNMENT FLOOD MAPPING,M,L
GANSW706144480,153.52904502,-28.18474499,"UNIT 2, 100 COMPANION WAY",TWEED HEADS,2485,NSW,2,0,GOVERNMENT FLOOD MAPPING,M,L
GANSW706145590,153.53186791,-28.17765933,1 THE QUARTERDECK,TWEED HEADS,2485,NSW,2,0,GOVERNMENT FLOOD MAPPING,L,L
GANSW706148112,153.52936785,-28.17751219,"UNIT 5, 2 DUCAT STREET",TWEED HEADS,2485,NSW,2,0,GOVERNMENT FLOOD MAPPING,M,M
GANSW706141485,153.52716962,-28.18249922,42 PARKES DRIVE,TWEED HEADS,2485,NSW,2,0,GOVERNMENT FLOOD MAPPING,M,L
GANSW706164847,153.52781366,-28.18087761,2 COMPASS WAY,TWEED HEADS,2485,NSW,2,1,GOVERNMENT FLOOD MAPPING,M,L
GANSW712336532,153.52584743,-28.18496653,"UNIT 2, 95 DUCAT STREET",TWEED HEADS,2485,NSW,2,1,GOVERNMENT FLOOD MAPPING,H,H
GANSW706164842,153.52805814,-28.18181058,15 COMPASS WAY,TWEED HEADS,2485,NSW,2,0,GOVERNMENT FLOOD MAPPING,M,L
GANSW718691104,153.53070382,-28.17720236,"UNIT 2, 11 MURRABA CRESCENT",TWEED HEADS,2485,NSW,2,0,GOVERNMENT FLOOD MAPPING,L,L
GANSW706182096,153.52637541,-28.18439618,82 DUCAT STREET,TWEED HEADS,2485,NSW,2,0,GOVERNMENT FLOOD MAPPING,M,M
GANSW712300968,153.52943662,-28.18519808,"UNIT 2, 91 COMPANION WAY",TWEED HEADS,2485,NSW,2,0,GOVERNMENT FLOOD MAPPING,M,L
GANSW706182208,153.53360390,-28.18478568,41 KENNEDY DRIVE,TWEED HEADS,2485,NSW,2,0,GOVERNMENT FLOOD MAPPING,L,L
GANSW706165434,153.53135068,-28.18514806,"UNIT 9, 19 MARGARET STREET",TWEED HEADS,2485,NSW,2,0,GOVERNMENT FLOOD MAPPING,L,L
GANSW706164843,153.52800347,-28.18198218,16 COMPASS WAY,TWEED HEADS,2485,NSW,2,0,GOVERNMENT FLOOD MAPPING,M,L
GANSW706099740,153.53073587,-28.18525046,1 NORMAN STREET,TWEED HEADS,2485,NSW,2,0,GOVERNMENT FLOOD MAPPING,M,L
GANSW706144772,153.53214807,-28.18179271,"UNIT 2, 45 THE QUARTERDECK",TWEED HEADS,2485,NSW,2,0,GOVERNMENT FLOOD MAPPING,L,L
GANSW706148817,153.53263311,-28.18075915,"UNIT 1, 37 THE QUARTERDECK",TWEED HEADS,2485,NSW,2,0,GOVERNMENT FLOOD MAPPING,L,L
GANSW706185508,153.52918255,-28.18334166,21 NORMAN STREET,TWEED HEADS,2485,NSW,2,0,GOVERNMENT FLOOD MAPPING,M,L
GANSW706161567,153.52655909,-28.18291970,64 DUCAT STREET,TWEED HEADS,2485,NSW,2,0,GOVERNMENT FLOOD MAPPING,H,H
GANSW706151885,153.53008208,-28.18623111,32 MARGARET STREET,TWEED HEADS,2485,NSW,2,0,GOVERNMENT FLOOD MAPPING,H,H
GANSW706164828,153.52976904,-28.18524219,"UNIT 2, 97 COMPANION WAY",TWEED HEADS,2485,NSW,2,0,GOVERNMENT FLOOD MAPPING,M,L
GANSW706172990,153.52968570,-28.17644586,17 MILES STREET,TWEED HEADS,2485,NSW,2,0,GOVERNMENT FLOOD MAPPING,L,L
GANSW706168233,153.52892457,-28.18563931,"UNIT 2, 88 COMPANION WAY",TWEED HEADS,2485,NSW,2,0,GOVERNMENT FLOOD MAPPING,M,L
GANSW706165445,153.53116407,-28.18520621,"UNIT 9, 21 MARGARET STREET",TWEED HEADS,2485,NSW,2,0,GOVERNMENT FLOOD MAPPING,L,L
GANSW706179264,153.53070215,-28.17909720,15 THE ANCHORAGE,TWEED HEADS,2485,NSW,2,0,GOVERNMENT FLOOD MAPPING,M,L
GANSW706155537,153.53019121,-28.17538562,28 MURRABA CRESCENT,TWEED HEADS,2485,NSW,2,0,GOVERNMENT FLOOD MAPPING,L,L
GANSW706145231,153.53087851,-28.17820265,"UNIT 4, 16 MUGGA WAY",TWEED HEADS,2485,NSW,2,1,GOVERNMENT FLOOD MAPPING,M,L
GANSW717929847,153.53112890,-28.18413139,"UNIT 2, 25 STANLEY STREET",TWEED HEADS,2485,NSW,2,0,GOVERNMENT FLOOD MAPPING,L,L
GANSW706145491,153.53369569,-28.18071498,18 LEEWARD TERRACE,TWEED HEADS,2485,NSW,2,0,GOVERNMENT FLOOD MAPPING,L,L
GANSW706182092,153.52905026,-28.17814012,"UNIT 2, 8 DUCAT STREET",TWEED HEADS,2485,NSW,2,0,GOVERNMENT FLOOD MAPPING,M,M
GANSW706105818,153.53250689,-28.18327354,3 ALVA STREET,TWEED HEADS,2485,NSW,2,0,GOVERNMENT FLOOD MAPPING,L,L
GANSW706145256,153.53210610,-28.18436481,14 STANLEY STREET,TWEED HEADS,2485,NSW,2,0,GOVERNMENT FLOOD MAPPING,L,L
GANSW706141489,153.52762584,-28.18279665,48 PARKES DRIVE,TWEED HEADS,2485,NSW,2,0,GOVERNMENT FLOOD MAPPING,M,L
GANSW718009352,153.53249228,-28.18473530,"UNIT 6, 7 MARGARET STREET",TWEED HEADS,2485,NSW,2,0,GOVERNMENT FLOOD MAPPING,L,L
GANSW706151884,153.53002559,-28.18562947,31 MARGARET STREET,TWEED HEADS,2485,NSW,2,0,GOVERNMENT FLOOD MAPPING,M,M
GANSW706179008,153.52704639,-28.18582031,34 MERIDIAN WAY,TWEED HEADS,2485,NSW,2,0,GOVERNMENT FLOOD MAPPING,M,L
GANSW706185824,153.53288400,-28.18108567,3 LEEWARD TERRACE,TWEED HEADS,2485,NSW,2,0,GOVERNMENT FLOOD MAPPING,L,L
GANSW712354754,153.53326958,-28.18285375,3A SECOND AVENUE,TWEED HEADS,2485,NSW,2,0,GOVERNMENT FLOOD MAPPING,L,L
GANSW706179012,153.52690543,-28.18518106,38 MERIDIAN WAY,TWEED HEADS,2485,NSW,2,0,GOVERNMENT FLOOD MAPPING,M,L
GANSW706144769,153.53220219,-28.18163053,43 THE QUARTERDECK,TWEED HEADS,2485,NSW,2,0,GOVERNMENT FLOOD MAPPING,L,L
GANSW706144798,153.53096148,-28.18385710,75 THE QUARTERDECK,TWEED HEADS,2485,NSW,2,0,GOVERNMENT FLOOD MAPPING,M,L
GANSW712300883,153.53145938,-28.18544453,2 MARGARET STREET,TWEED HEADS,2485,NSW,4,0,GOVERNMENT FLOOD MAPPING,M,L
GANSW706168592,153.52709785,-28.18164184,50 DUCAT STREET,TWEED HEADS,2485,NSW,2,0,GOVERNMENT FLOOD MAPPING,M,L
GANSW718012895,153.53243273,-28.17785319,14 THE JIB,TWEED HEADS,2485,NSW,4,0,GOVERNMENT FLOOD MAPPING,L,L
GANSW706175698,153.53135068,-28.18514806,"UNIT 2, 19 MARGARET STREET",TWEED HEADS,2485,NSW,2,0,GOVERNMENT FLOOD MAPPING,L,L
GANSW706135027,153.53257188,-28.18420072,8 STANLEY STREET,TWEED HEADS,2485,NSW,2,0,GOVERNMENT FLOOD MAPPING,L,L
GANSW706145235,153.53099461,-28.17764944,19 MUGGA WAY,TWEED HEADS,2485,NSW,2,0,GOVERNMENT FLOOD MAPPING,L,L
GANSW706185822,153.53288400,-28.18108567,"UNIT 1, 3 LEEWARD TERRACE",TWEED HEADS,2485,NSW,2,0,GOVERNMENT FLOOD MAPPING,L,L
GANSW718009351,153.53249228,-28.18473530,"UNIT 5, 7 MARGARET STREET",TWEED HEADS,2485,NSW,2,0,GOVERNMENT FLOOD MAPPING,L,L
GANSW706141500,153.53402945,-28.17888341,36 LEEWARD TERRACE,TWEED HEADS,2485,NSW,2,0,GOVERNMENT FLOOD MAPPING,L,L
GANSW706145583,153.53122518,-28.18179948,3 THE MAINBRACE,TWEED HEADS,2485,NSW,2,0,GOVERNMENT FLOOD MAPPING,M,L
GANSW706144488,153.52897323,-28.18414848,62 COMPANION WAY,TWEED HEADS,2485,NSW,2,0,GOVERNMENT FLOOD MAPPING,M,L
GANSW706155541,153.53123101,-28.17648429,6 MURRABA CRESCENT,TWEED HEADS,2485,NSW,2,0,GOVERNMENT FLOOD MAPPING,L,L
GANSW706135025,153.53272103,-28.18412773,6 STANLEY STREET,TWEED HEADS,2485,NSW,2,0,GOVERNMENT FLOOD MAPPING,L,L
GANSW706144792,153.53201822,-28.18309638,61 THE QUARTERDECK,TWEED HEADS,2485,NSW,2,0,GOVERNMENT FLOOD MAPPING,L,L
GANSW706172987,153.52971636,-28.17614177,"UNIT 2, 13 MILES STREET",TWEED HEADS,2485,NSW,2,0,GOVERNMENT FLOOD MAPPING,L,L
GANSW706113117,153.53303456,-28.18303847,"UNIT 1, 6 ALVA STREET",TWEED HEADS,2485,NSW,2,0,GOVERNMENT FLOOD MAPPING,L,L
GANSW706151351,153.53276384,-28.18532099,51 KENNEDY DRIVE,TWEED HEADS,2485,NSW,2,0,GOVERNMENT FLOOD MAPPING,L,L
GANSW706135240,153.53322613,-28.18003132,15 LEEWARD TERRACE,TWEED HEADS,2485,NSW,2,0,GOVERNMENT FLOOD MAPPING,L,L
GANSW706158001,153.52731657,-28.18421510,14 MERIDIAN WAY,TWEED HEADS,2485,NSW,2,0,GOVERNMENT FLOOD MAPPING,M,L
GANSW718267939,153.52759657,-28.18290620,48A PARKES DRIVE,TWEED HEADS,2485,NSW,2,0,GOVERNMENT FLOOD MAPPING,M,L
GANSW706144767,153.53221255,-28.18144581,41 THE QUARTERDECK,TWEED HEADS,2485,NSW,2,0,GOVERNMENT FLOOD MAPPING,L,L
GANSW706135254,153.53019345,-28.18087224,14 THE BOWSPRIT,TWEED HEADS,2485,NSW,2,0,GOVERNMENT FLOOD MAPPING,M,L
GANSW706151880,153.53046390,-28.18610190,28 MARGARET STREET,TWEED HEADS,2485,NSW,2,0,GOVERNMENT FLOOD MAPPING,H,H
GANSW706144469,153.53402516,-28.18401599,84 CHARLES STREET,TWEED HEADS,2485,NSW,2,0,GOVERNMENT FLOOD MAPPING,L,L
GANSW706145263,153.53162631,-28.18452888,20 STANLEY STREET,TWEED HEADS,2485,NSW,2,0,GOVERNMENT FLOOD MAPPING,L,L
GANSW706179006,153.52704639,-28.18582031,"UNIT 1, 34 MERIDIAN WAY",TWEED HEADS,2485,NSW,2,0,GOVERNMENT FLOOD MAPPING,M,L
GANSW712347611,153.52666459,-28.18348421,7B MERIDIAN WAY,TWEED HEADS,2485,NSW,2,0,GOVERNMENT FLOOD MAPPING,M,L
GANSW712309339,153.53108219,-28.17823955,"UNIT 1, 18 MUGGA WAY",TWEED HEADS,2485,NSW,2,0,GOVERNMENT FLOOD MAPPING,M,L
GANSW706145586,153.53086196,-28.18227462,6 THE MAINBRACE,TWEED HEADS,2485,NSW,2,0,GOVERNMENT FLOOD MAPPING,M,L
GANSW707673754,153.53154212,-28.18507799,17 MARGARET STREET,TWEED HEADS,2485,NSW,2,0,GOVERNMENT FLOOD MAPPING,L,L
GANSW718865424,153.53309409,-28.18451656,"UNIT 5, 1 MARGARET STREET",TWEED HEADS,2485,NSW,2,0,GOVERNMENT FLOOD MAPPING,L,L
GANSW706105801,153.53236722,-28.18259183,11 ALVA STREET,TWEED HEADS,2485,NSW,2,0,GOVERNMENT FLOOD MAPPING,L,L
GANSW706145537,153.53045892,-28.18221662,10 THE MAINBRACE,TWEED HEADS,2485,NSW,2,0,GOVERNMENT FLOOD MAPPING,M,L
GANSW706145511,153.53399267,-28.17908488,"UNIT 1, 34 LEEWARD TERRACE",TWEED HEADS,2485,NSW,2,0,GOVERNMENT FLOOD MAPPING,L,L
GANSW706134212,153.52924414,-28.17769736,"UNIT 6, 4 DUCAT STREET",TWEED HEADS,2485,NSW,2,0,GOVERNMENT FLOOD MAPPING,M,M
GANSW706148111,153.52936785,-28.17751219,"UNIT 4, 2 DUCAT STREET",TWEED HEADS,2485,NSW,2,0,GOVERNMENT FLOOD MAPPING,M,M
GANSW717777188,153.53172024,-28.18570111,"UNIT 2, 16-18 MARGARET STREET",TWEED HEADS,2485,NSW,2,0,GOVERNMENT FLOOD MAPPING,M,L
GANSW706141595,153.53192109,-28.18494091,"UNIT 6, 13 MARGARET STREET",TWEED HEADS,2485,NSW,2,0,GOVERNMENT FLOOD MAPPING,L,L
GANSW715473437,153.53287559,-28.18459561,"UNIT 1, 3 MARGARET STREET",TWEED HEADS,2485,NSW,2,0,GOVERNMENT FLOOD MAPPING,L,L
GANSW706162053,153.52798645,-28.18045970,4 COMPASS WAY,TWEED HEADS,2485,NSW,2,0,GOVERNMENT FLOOD MAPPING,M,L
GANSW706134743,153.52668147,-28.18403749,4 MERIDIAN WAY,TWEED HEADS,2485,NSW,2,0,GOVERNMENT FLOOD MAPPING,M,L
GANSW717199699,153.53437563,-28.18433098,"UNIT 4, 13 SECOND AVENUE",TWEED HEADS,2485,NSW,2,0,GOVERNMENT FLOOD MAPPING,L,L
GANSW706113122,153.53231025,-28.18276286,9 ALVA STREET,TWEED HEADS,2485,NSW,2,0,GOVERNMENT FLOOD MAPPING,L,L
GANSW706145530,153.53219727,-28.17717903,"UNIT 2, 6 KENT STREET",TWEED HEADS,2485,NSW,2,0,GOVERNMENT FLOOD MAPPING,L,L
GANSW706144761,153.53136243,-28.18266065,38 THE QUARTERDECK,TWEED HEADS,2485,NSW,2,0,GOVERNMENT FLOOD MAPPING,M,L
GANSW706135022,153.53314948,-28.18362591,3 STANLEY STREET,TWEED HEADS,2485,NSW,2,0,GOVERNMENT FLOOD MAPPING,L,L
GANSW706134208,153.52924414,-28.17769736,"UNIT 2, 4 DUCAT STREET",TWEED HEADS,2485,NSW,2,0,GOVERNMENT FLOOD MAPPING,M,M
GANSW706175727,153.53230133,-28.18480372,"UNIT 1, 9 MARGARET STREET",TWEED HEADS,2485,NSW,2,0,GOVERNMENT FLOOD MAPPING,L,L
GANSW712336523,153.52671082,-28.18606872,"SHOP 1, 100 DUCAT STREET",TWEED HEADS,2485,NSW,2,0,GOVERNMENT FLOOD MAPPING,M,L
GANSW706148805,153.53283020,-28.17978015,27 THE QUARTERDECK,TWEED HEADS,2485,NSW,2,0,GOVERNMENT FLOOD MAPPING,L,L
GANSW718691106,153.52978922,-28.17547461,31 MURRABA CRESCENT,TWEED HEADS,2485,NSW,2,0,GOVERNMENT FLOOD MAPPING,L,L
GANSW717301859,153.53407059,-28.18442673,"UNIT 3, 35 KENNEDY DRIVE",TWEED HEADS,2485,NSW,2,0,GOVERNMENT FLOOD MAPPING,L,L
GANSW706135264,153.53152382,-28.18052979,3 THE BOWSPRIT,TWEED HEADS,2485,NSW,2,0,GOVERNMENT FLOOD MAPPING,M,L
GANSW706164726,153.53076802,-28.18629729,71 KENNEDY DRIVE,TWEED HEADS,2485,NSW,2,0,GOVERNMENT FLOOD MAPPING,M,M
GANSW718865425,153.53309409,-28.18451656,"UNIT 6, 1 MARGARET STREET",TWEED HEADS,2485,NSW,2,0,GOVERNMENT FLOOD MAPPING,L,L
GANSW706172995,153.52970385,-28.17691409,23 MILES STREET,TWEED HEADS,2485,NSW,2,0,GOVERNMENT FLOOD MAPPING,L,L
GANSW706158000,153.52728054,-28.18404051,13 MERIDIAN WAY,TWEED HEADS,2485,NSW,2,0,GOVERNMENT FLOOD MAPPING,M,L
GANSW706141510,153.53311742,-28.18111192,5 LEEWARD TERRACE,TWEED HEADS,2485,NSW,2,0,GOVERNMENT FLOOD MAPPING,L,L
GANSW706148809,153.53168163,-28.18131712,30 THE QUARTERDECK,TWEED HEADS,2485,NSW,2,0,GOVERNMENT FLOOD MAPPING,M,L
GANSW706105812,153.53337970,-28.18205008,"UNIT 1, 18 ALVA STREET",TWEED HEADS,2485,NSW,2,0,GOVERNMENT FLOOD MAPPING,L,L
GANSW712300879,153.53173116,-28.18500572,"UNIT 8, 15 MARGARET STREET",TWEED HEADS,2485,NSW,2,0,GOVERNMENT FLOOD MAPPING,L,L
GANSW706148109,153.52936785,-28.17751219,"UNIT 2, 2 DUCAT STREET",TWEED HEADS,2485,NSW,2,0,GOVERNMENT FLOOD MAPPING,M,M
GANSW706172986,153.52971636,-28.17614177,"UNIT 1, 13 MILES STREET",TWEED HEADS,2485,NSW,2,0,GOVERNMENT FLOOD MAPPING,L,L
GANSW706145495,153.53333634,-28.17943131,21 LEEWARD TERRACE,TWEED HEADS,2485,NSW,2,0,GOVERNMENT FLOOD MAPPING,L,L
GANSW706158005,153.52746306,-28.18495695,18 MERIDIAN WAY,TWEED HEADS,2485,NSW,2,0,GOVERNMENT FLOOD MAPPING,M,L
GANSW712326434,153.53067391,-28.17818207,"UNIT 4, 14 MUGGA WAY",TWEED HEADS,2485,NSW,2,0,GOVERNMENT FLOOD MAPPING,M,L
GANSW706171842,153.52659832,-28.18553471,94 DUCAT STREET,TWEED HEADS,2485,NSW,2,0,GOVERNMENT FLOOD MAPPING,M,L
GANSW706135242,153.53189086,-28.17927360,3 THE ANCHORAGE,TWEED HEADS,2485,NSW,2,0,GOVERNMENT FLOOD MAPPING,M,L
GANSW706155524,153.53026312,-28.17708067,15 MURRABA CRESCENT,TWEED HEADS,2485,NSW,2,0,GOVERNMENT FLOOD MAPPING,L,L
GANSW706168240,153.52944090,-28.18537088,"UNIT 1, 95 COMPANION WAY",TWEED HEADS,2485,NSW,2,0,GOVERNMENT FLOOD MAPPING,M,L
GANSW707656780,153.53399267,-28.17908488,34 LEEWARD TERRACE,TWEED HEADS,2485,NSW,2,0,GOVERNMENT FLOOD MAPPING,L,L
GANSW706185823,153.53288400,-28.18108567,"UNIT 2, 3 LEEWARD TERRACE",TWEED HEADS,2485,NSW,2,0,GOVERNMENT FLOOD MAPPING,L,L
GANSW712280180,153.52815759,-28.18012627,5A COMPASS WAY,TWEED HEADS,2485,NSW,2,0,GOVERNMENT FLOOD MAPPING,M,L
GANSW712300897,153.53328443,-28.18509257,45A KENNEDY DRIVE,TWEED HEADS,2485,NSW,2,0,GOVERNMENT FLOOD MAPPING,L,L
GANSW706154988,153.53154212,-28.18507799,"UNIT 5, 17 MARGARET STREET",TWEED HEADS,2485,NSW,2,0,GOVERNMENT FLOOD MAPPING,L,L
GANSW706145541,153.53005099,-28.18215769,14 THE MAINBRACE,TWEED HEADS,2485,NSW,2,0,GOVERNMENT FLOOD MAPPING,M,L
GANSW706151879,153.53040286,-28.18548951,27 MARGARET STREET,TWEED HEADS,2485,NSW,2,0,GOVERNMENT FLOOD MAPPING,H,H
GANSW706155059,153.52982905,-28.18463215,85 THE QUARTERDECK,TWEED HEADS,2485,NSW,2,0,GOVERNMENT FLOOD MAPPING,M,L
GANSW718691103,153.53070382,-28.17720236,"UNIT 1, 11 MURRABA CRESCENT",TWEED HEADS,2485,NSW,2,0,GOVERNMENT FLOOD MAPPING,L,L
GANSW706157997,153.52727272,-28.18347663,10 MERIDIAN WAY,TWEED HEADS,2485,NSW,2,0,GOVERNMENT FLOOD MAPPING,M,L
GANSW718133275,153.53407059,-28.18442673,35B KENNEDY DRIVE,TWEED HEADS,2485,NSW,2,0,GOVERNMENT FLOOD MAPPING,L,L
GANSW706179273,153.52980125,-28.17892693,23 THE ANCHORAGE,TWEED HEADS,2485,NSW,2,0,GOVERNMENT FLOOD MAPPING,M,L
GANSW706164838,153.52834946,-28.18111212,11 COMPASS WAY,TWEED HEADS,2485,NSW,2,0,GOVERNMENT FLOOD MAPPING,M,L
GANSW706145536,153.53148844,-28.18186954,1 THE MAINBRACE,TWEED HEADS,2485,NSW,2,0,GOVERNMENT FLOOD MAPPING,M,L
GANSW715479878,153.53059927,-28.17658808,"UNIT 2, 14 MURRABA CRESCENT",TWEED HEADS,2485,NSW,2,0,GOVERNMENT FLOOD MAPPING,L,L
GANSW712300876,153.53173116,-28.18500572,"UNIT 2, 15 MARGARET STREET",TWEED HEADS,2485,NSW,2,0,GOVERNMENT FLOOD MAPPING,L,L
GANSW706155536,153.53042003,-28.17546913,26 MURRABA CRESCENT,TWEED HEADS,2485,NSW,2,0,GOVERNMENT FLOOD MAPPING,L,L
GANSW706185499,153.52975452,-28.18382248,13 NORMAN STREET,TWEED HEADS,2485,NSW,2,0,GOVERNMENT FLOOD MAPPING,M,L
GANSW706151887,153.52983398,-28.18570732,"UNIT 2, 33 MARGARET STREET",TWEED HEADS,2485,NSW,2,0,GOVERNMENT FLOOD MAPPING,H,H
GANSW706135026,153.53279687,-28.18360100,7 STANLEY STREET,TWEED HEADS,2485,NSW,2,0,GOVERNMENT FLOOD MAPPING,L,L
GANSW706113114,153.53318261,-28.18321873,"UNIT 2, 4 ALVA STREET",TWEED HEADS,2485,NSW,2,0,GOVERNMENT FLOOD MAPPING,L,L
GANSW717923441,153.52601288,-28.18582921,109 KENNEDY DRIVE,TWEED HEADS,2485,NSW,2,1,GOVERNMENT FLOOD MAPPING,M,M
GANSW706145585,153.53100712,-28.18176822,5 THE MAINBRACE,TWEED HEADS,2485,NSW,2,0,GOVERNMENT FLOOD MAPPING,M,L
GANSW706135011,153.53097810,-28.18418418,27 STANLEY STREET,TWEED HEADS,2485,NSW,2,0,GOVERNMENT FLOOD MAPPING,L,L
GANSW706145233,153.53080994,-28.17762406,17 MUGGA WAY,TWEED HEADS,2485,NSW,2,0,GOVERNMENT FLOOD MAPPING,L,L
GANSW706144753,153.53214873,-28.18003345,20 THE QUARTERDECK,TWEED HEADS,2485,NSW,2,0,GOVERNMENT FLOOD MAPPING,M,L
GANSW706155523,153.53059927,-28.17658808,14 MURRABA CRESCENT,TWEED HEADS,2485,NSW,2,0,GOVERNMENT FLOOD MAPPING,L,L
GANSW706145255,153.53206496,-28.18379111,13 STANLEY STREET,TWEED HEADS,2485,NSW,2,0,GOVERNMENT FLOOD MAPPING,L,L
GANSW706165448,153.53083096,-28.18546070,23 MARGARET STREET,TWEED HEADS,2485,NSW,2,0,GOVERNMENT FLOOD MAPPING,M,L
GANSW706148807,153.53279870,-28.17997609,29 THE QUARTERDECK,TWEED HEADS,2485,NSW,2,0,GOVERNMENT FLOOD MAPPING,L,L
GANSW706105813,153.53337970,-28.18205008,"UNIT 2, 18 ALVA STREET",TWEED HEADS,2485,NSW,2,0,GOVERNMENT FLOOD MAPPING,L,L
GANSW706168231,153.52874177,-28.18556477,86 COMPANION WAY,TWEED HEADS,2485,NSW,2,0,GOVERNMENT FLOOD MAPPING,M,L
GANSW706185512,153.53055104,-28.18505943,3 NORMAN STREET,TWEED HEADS,2485,NSW,2,0,GOVERNMENT FLOOD MAPPING,L,L
GANSW706144481,153.52904502,-28.18474499,100 COMPANION WAY,TWEED HEADS,2485,NSW,2,0,GOVERNMENT FLOOD MAPPING,M,L
GANSW718018048,153.53446088,-28.18445426,15 SECOND AVENUE,TWEED HEADS,2485,NSW,2,0,GOVERNMENT FLOOD MAPPING,L,L
GANSW706144484,153.53010299,-28.18494891,101 COMPANION WAY,TWEED HEADS,2485,NSW,2,0,GOVERNMENT FLOOD MAPPING,M,L
GANSW706164825,153.52892835,-28.18504779,"UNIT 2, 96 COMPANION WAY",TWEED HEADS,2485,NSW,2,0,GOVERNMENT FLOOD MAPPING,M,L
GANSW706164836,153.52773735,-28.18104257,1 COMPASS WAY,TWEED HEADS,2485,NSW,2,0,GOVERNMENT FLOOD MAPPING,M,L
GANSW712336529,153.52671082,-28.18606872,"SHOP 7, 100 DUCAT STREET",TWEED HEADS,2485,NSW,2,0,GOVERNMENT FLOOD MAPPING,M,L
GANSW715473441,153.53287559,-28.18459561,"UNIT 4, 3 MARGARET STREET",TWEED HEADS,2485,NSW,2,0,GOVERNMENT FLOOD MAPPING,L,L
GANSW706172980,153.52663395,-28.18386327,5 MERIDIAN WAY,TWEED HEADS,2485,NSW,2,0,GOVERNMENT FLOOD MAPPING,M,L
GANSW706105815,153.53279276,-28.18199362,19 ALVA STREET,TWEED HEADS,2485,NSW,2,0,GOVERNMENT FLOOD MAPPING,L,L
GANSW706154729,153.53424916,-28.18271953,63 CHARLES STREET,TWEED HEADS,2485,NSW,2,0,GOVERNMENT FLOOD MAPPING,L,L
GANSW706137845,153.52829722,-28.17943442,24 DUCAT STREET,TWEED HEADS,2485,NSW,2,0,GOVERNMENT FLOOD MAPPING,M,L
GANSW706164826,153.52892835,-28.18504779,96 COMPANION WAY,TWEED HEADS,2485,NSW,2,0,GOVERNMENT FLOOD MAPPING,M,L
GANSW718009355,153.53249228,-28.18473530,"UNIT 9, 7 MARGARET STREET",TWEED HEADS,2485,NSW,2,0,GOVERNMENT FLOOD MAPPING,L,L
GANSW706145267,153.53005991,-28.17805451,"UNIT 2, 8 MUGGA WAY",TWEED HEADS,2485,NSW,2,0,GOVERNMENT FLOOD MAPPING,M,L
GANSW706144751,153.53163511,-28.17833567,"UNIT 2, 2 THE QUARTERDECK",TWEED HEADS,2485,NSW,2,0,GOVERNMENT FLOOD MAPPING,M,L
GANSW706157996,153.52677462,-28.18451393,1 MERIDIAN WAY,TWEED HEADS,2485,NSW,2,0,GOVERNMENT FLOOD MAPPING,M,M
GANSW706148113,153.52936785,-28.17751219,"UNIT 6, 2 DUCAT STREET",TWEED HEADS,2485,NSW,2,0,GOVERNMENT FLOOD MAPPING,M,M
GANSW706185501,153.52964304,-28.18364695,15 NORMAN STREET,TWEED HEADS,2485,NSW,2,0,GOVERNMENT FLOOD MAPPING,M,L
GANSW716641814,153.53028563,-28.18434428,81B THE QUARTERDECK,TWEED HEADS,2485,NSW,2,1,GOVERNMENT FLOOD MAPPING,M,L
GANSW706161576,153.52839478,-28.17927313,22 DUCAT STREET,TWEED HEADS,2485,NSW,2,0,GOVERNMENT FLOOD MAPPING,M,L
GANSW706161573,153.52636226,-28.18339160,70 DUCAT STREET,TWEED HEADS,2485,NSW,2,0,GOVERNMENT FLOOD MAPPING,M,H
GANSW706145254,153.53225674,-28.18429552,12 STANLEY STREET,TWEED HEADS,2485,NSW,2,0,GOVERNMENT FLOOD MAPPING,L,L
GANSW718621992,153.53013049,-28.18442117,"UNIT 3, 81 THE QUARTERDECK",TWEED HEADS,2485,NSW,2,1,GOVERNMENT FLOOD MAPPING,M,L
GANSW712300877,153.53173116,-28.18500572,"UNIT 6, 15 MARGARET STREET",TWEED HEADS,2485,NSW,2,0,GOVERNMENT FLOOD MAPPING,L,L
GANSW706155479,153.52986288,-28.17801501,"UNIT 2, 6 MUGGA WAY",TWEED HEADS,2485,NSW,2,0,GOVERNMENT FLOOD MAPPING,M,L
GANSW706144754,153.53292365,-28.17919097,21 THE QUARTERDECK,TWEED HEADS,2485,NSW,2,0,GOVERNMENT FLOOD MAPPING,L,L
GANSW706135268,153.53112244,-28.18047135,7 THE BOWSPRIT,TWEED HEADS,2485,NSW,2,0,GOVERNMENT FLOOD MAPPING,M,L
GANSW706165449,153.53082926,-28.18592027,24 MARGARET STREET,TWEED HEADS,2485,NSW,2,0,GOVERNMENT FLOOD MAPPING,M,L
GANSW718619458,153.53070382,-28.17720236,11A MURRABA CRESCENT,TWEED HEADS,2485,NSW,2,0,GOVERNMENT FLOOD MAPPING,L,L
GANSW706144468,153.53413225,-28.18382270,82 CHARLES STREET,TWEED HEADS,2485,NSW,2,0,GOVERNMENT FLOOD MAPPING,L,L
GANSW706179004,153.52710401,-28.18597229,"UNIT 2, 33 MERIDIAN WAY",TWEED HEADS,2485,NSW,2,0,GOVERNMENT FLOOD MAPPING,M,L
GANSW706165465,153.53393251,-28.18253730,"UNIT 1, 4 SECOND AVENUE",TWEED HEADS,2485,NSW,2,0,GOVERNMENT FLOOD MAPPING,L,L
GANSW716408686,153.53172024,-28.18570111,"UNIT 3, 16 MARGARET STREET",TWEED HEADS,2485,NSW,2,0,GOVERNMENT FLOOD MAPPING,M,L
GANSW706137827,153.52867566,-28.17879397,"UNIT 1, 16 DUCAT STREET",TWEED HEADS,2485,NSW,2,0,GOVERNMENT FLOOD MAPPING,M,M
GANSW706172999,153.52975977,-28.17583344,9 MILES STREET,TWEED HEADS,2485,NSW,2,0,GOVERNMENT FLOOD MAPPING,L,L
GANSW716911879,153.53172024,-28.18570111,"UNIT 3, 16-18 MARGARET STREET",TWEED HEADS,2485,NSW,2,0,GOVERNMENT FLOOD MAPPING,M,L
GANSW706155527,153.53059857,-28.17614080,18 MURRABA CRESCENT,TWEED HEADS,2485,NSW,2,0,GOVERNMENT FLOOD MAPPING,L,L
GANSW712322477,153.53003081,-28.17615556,"UNIT 2, 25 MURRABA CRESCENT",TWEED HEADS,2485,NSW,2,0,GOVERNMENT FLOOD MAPPING,L,L
GANSW712263019,153.53395555,-28.17928978,"UNIT 1, 32 LEEWARD TERRACE",TWEED HEADS,2485,NSW,2,0,GOVERNMENT FLOOD MAPPING,L,L
GANSW706179013,153.52687272,-28.18501574,39 MERIDIAN WAY,TWEED HEADS,2485,NSW,2,0,GOVERNMENT FLOOD MAPPING,M,L
